{"type":"FeatureCollection","features":[{"type":"Feature","properties":{"stage":1,"origin":"Sarria","destination":"Portomarín","source_file":"ES01c28a-Sarria-Portomarin.kml","source":"FEAACS / CNIG-IGN","license":"CC-BY 4.0"},"geometry":{"type":"LineString","coordinates":[[-7.414834387600422,42.77742052450776,0.0],[-7.415008898824454,42.777445670217276,0.0],[-7.415340822190047,42.77745019644499,0.0],[-7.415911462157965,42.777357157319784,0.0],[-7.417577952146531,42.77683597058058,0.0],[-7.417671661823988,42.776855919510126,0.0],[-7.417726647108794,42.77715330943465,0.0],[-7.41787014529109,42.7774304151535,0.0],[-7.418389488011599,42.77766544371843,0.0],[-7.418865077197552,42.777767200022936,0.0],[-7.419317197054625,42.77779519557953,0.0],[-7.419746518135071,42.7778847143054,0.0],[-7.420038208365441,42.77802251279354,0.0],[-7.420597113668919,42.778364662081,0.0],[-7.420849241316319,42.778514698147774,0.0],[-7.420950494706631,42.77841109782457,0.0],[-7.421292308717966,42.77800591662526,0.0],[-7.4220659583807,42.77704669162631,0.0],[-7.42236552760005,42.77665860950947,0.0],[-7.422471977770329,42.77672566473484,0.0],[-7.422549426555634,42.77678584679961,0.0],[-7.42274908348918,42.776972595602274,0.0],[-7.422856204211712,42.77722489088774,0.0],[-7.42346590384841,42.77836298570037,0.0],[-7.42380402982235,42.77836985886097,0.0],[-7.424065880477429,42.77831219136715,0.0],[-7.424377016723156,42.778148744255304,0.0],[-7.425016388297081,42.77800692245364,0.0],[-7.425178829580546,42.77796903625131,0.0],[-7.425252757966519,42.777886390686035,0.0],[-7.425568085163832,42.77750685811043,0.0],[-7.425896655768156,42.777216508984566,0.0],[-7.426606938242913,42.7767707593739,0.0],[-7.426868453621865,42.776605635881424,0.0],[-7.426611967384816,42.77645945549011,0.0],[-7.426543068140746,42.77640514075756,0.0],[-7.426535356789828,42.7763669192791,0.0],[-7.426618169993163,42.77628310024738,0.0],[-7.426868788897992,42.77605528011918,0.0],[-7.427050340920687,42.77582444250584,0.0],[-7.42724983021617,42.77556611225009,0.0],[-7.427540849894286,42.77535220608115,0.0],[-7.427736315876246,42.775254640728235,0.0],[-7.427992634475232,42.775156404823065,0.0],[-7.428151890635491,42.77502531185746,0.0],[-7.428247779607773,42.77488265186548,0.0],[-7.428363952785731,42.774748373776674,0.0],[-7.428675759583712,42.774553913623095,0.0],[-7.428868710994721,42.77447462081909,0.0],[-7.429122515022755,42.77442902326584,0.0],[-7.429598104208708,42.77433531358838,0.0],[-7.429977469146252,42.77424009516835,0.0],[-7.430228758603335,42.77417538687587,0.0],[-7.43031794205308,42.77411302551627,0.0],[-7.430548276752234,42.77371924370527,0.0],[-7.430595383048058,42.773599214851856,0.0],[-7.430864777415991,42.77314893901348,0.0],[-7.431124616414309,42.77269430458546,0.0],[-7.431293763220311,42.77270872145891,0.0],[-7.431706991046667,42.77270620688796,0.0],[-7.432265561074019,42.77264267206192,0.0],[-7.432771157473326,42.77261534705758,0.0],[-7.433401811867953,42.77234109118581,0.0],[-7.433916460722685,42.77229046449065,0.0],[-7.434598580002785,42.77229968458414,0.0],[-7.43541480973363,42.77231980115175,0.0],[-7.435883190482855,42.772365901619196,0.0],[-7.436002381145955,42.77229029685259,0.0],[-7.436006404459477,42.77222592383623,0.0],[-7.435908503830433,42.7721999399364,0.0],[-7.435816135257483,42.77210941538215,0.0],[-7.435755282640458,42.771987710148096,0.0],[-7.435871455818415,42.77156928554177,0.0],[-7.435918226838112,42.77147188782692,0.0],[-7.436113022267819,42.7713243663311,0.0],[-7.436378225684166,42.77122059836984,0.0],[-7.436856999993325,42.77107089757919,0.0],[-7.437476087361575,42.770866714417934,0.0],[-7.437626123428345,42.7708150818944,0.0],[-7.437753528356553,42.7707564085722,0.0],[-7.437982857227326,42.77058457955718,0.0],[-7.438193242996931,42.77043957263231,0.0],[-7.438491638749838,42.770283333957195,0.0],[-7.438727673143149,42.770170513540506,0.0],[-7.43909027427435,42.7700224891305,0.0],[-7.439534682780505,42.76984998956323,0.0],[-7.439605761319399,42.76982802897692,0.0],[-7.439669631421566,42.769813779741526,0.0],[-7.439734842628241,42.76982098817825,0.0],[-7.439825031906367,42.76992358267307,0.0],[-7.439963165670634,42.77010781690478,0.0],[-7.440109848976136,42.77028249576688,0.0],[-7.440228872001172,42.770356591790915,0.0],[-7.44057571515441,42.770433872938156,0.0],[-7.441013250499964,42.770544178783894,0.0],[-7.44139026850462,42.77059530839324,0.0],[-7.441699728369713,42.77060955762863,0.0],[-7.441864516586066,42.770640570670366,0.0],[-7.442196104675532,42.77071885764599,0.0],[-7.442573625594378,42.7708082087338,0.0],[-7.442905716598034,42.77086755260825,0.0],[-7.443078383803368,42.770908791571856,0.0],[-7.443199083209038,42.77092019096017,0.0],[-7.443303521722556,42.770901918411255,0.0],[-7.44340343400836,42.770820278674364,0.0],[-7.443478535860777,42.77060955762863,0.0],[-7.443553637713194,42.77045834809542,0.0],[-7.443758491426707,42.77014737948775,0.0],[-7.443927638232708,42.76998493820429,0.0],[-7.444231398403645,42.769765332341194,0.0],[-7.44440557435155,42.76961479336023,0.0],[-7.444382943212986,42.7692417986691,0.0],[-7.444326784461737,42.76914305984974,0.0],[-7.444171719253064,42.76896972209215,0.0],[-7.444100640714169,42.768876515328884,0.0],[-7.444122433662415,42.76880543678999,0.0],[-7.444194685667754,42.76872279122472,0.0],[-7.444537337869406,42.768578454852104,0.0],[-7.444656863808632,42.76856521144509,0.0],[-7.444765996187926,42.76855934411287,0.0],[-7.444901280105114,42.76858834549785,0.0],[-7.445026673376561,42.768604941666126,0.0],[-7.445160951465369,42.76860058307648,0.0],[-7.445378880947829,42.76851961389184,0.0],[-7.445525564253331,42.76834426447749,0.0],[-7.445918507874012,42.767946626991034,0.0],[-7.446392588317395,42.76754127815366,0.0],[-7.446583863347769,42.767339274287224,0.0],[-7.447115946561098,42.76694867759943,0.0],[-7.447491623461247,42.766791097819805,0.0],[-7.447901498526335,42.766659669578075,0.0],[-7.448286898434163,42.76657937094569,0.0],[-7.448806073516608,42.766572162508965,0.0],[-7.449039593338967,42.76652958244085,0.0],[-7.449350561946631,42.766408044844866,0.0],[-7.449685670435429,42.76628701016307,0.0],[-7.450022622942925,42.766091879457235,0.0],[-7.450214736163617,42.76592390611768,0.0],[-7.450441382825375,42.76594955474138,0.0],[-7.450763247907162,42.76618240401149,0.0],[-7.450882438570261,42.7662836574018,0.0],[-7.450882438570261,42.7662836574018,0.0],[-7.451257109642029,42.76660183444619,0.0],[-7.452018354088068,42.76744890958071,0.0],[-7.452592179179192,42.76812432333827,0.0],[-7.452827375382185,42.76856789365411,0.0],[-7.453153766691685,42.768791019916534,0.0],[-7.453770004212857,42.76915345340967,0.0],[-7.454266045242548,42.76933601126075,0.0],[-7.455377150326968,42.76946660131216,0.0],[-7.455872520804406,42.76958595961332,0.0],[-7.456183657050133,42.769541032612324,0.0],[-7.456446681171656,42.76941832154989,0.0],[-7.456765864044428,42.76910601183772,0.0],[-7.457063756883145,42.768851704895496,0.0],[-7.457401882857085,42.76876939460635,0.0],[-7.457635570317507,42.76869244873524,0.0],[-7.457799687981606,42.76859337463975,0.0],[-7.458056844770909,42.768495474010706,0.0],[-7.458358258008957,42.76835650205612,0.0],[-7.45866134762764,42.768264301121235,0.0],[-7.458840385079384,42.76817210018635,0.0],[-7.459036689251662,42.768016532063484,0.0],[-7.459129057824612,42.768108397722244,0.0],[-7.459362074732781,42.76823680847883,0.0],[-7.45950372889638,42.768366392701864,0.0],[-7.459555864334107,42.7685528062284,0.0],[-7.4596356600523,42.768639642745256,0.0],[-7.459897845983506,42.76879370212555,0.0],[-7.460289113223553,42.76894072070718,0.0],[-7.460699658840895,42.769125290215015,0.0],[-7.461026720702649,42.76920424774289,0.0],[-7.461280021816492,42.76919636875391,0.0],[-7.461529131978751,42.76915496215224,0.0],[-7.462418116629124,42.76932226493955,0.0],[-7.462574020028115,42.76934506371617,0.0],[-7.462947852909565,42.76930868625641,0.0],[-7.463189419358969,42.76927348226309,0.0],[-7.463360745459795,42.769323103129864,0.0],[-7.463609855622054,42.769492752850056,0.0],[-7.463801968842745,42.76959199458361,0.0],[-7.464075889438391,42.769682351499796,0.0],[-7.464428264647723,42.769707161933184,0.0],[-7.464831769466401,42.76967916637659,0.0],[-7.464970573782921,42.76973783969879,0.0],[-7.465196382254362,42.769944202154875,0.0],[-7.465383801609278,42.7700499817729,0.0],[-7.465792335569859,42.77010211721063,0.0],[-7.46620623394847,42.77014771476388,0.0],[-7.466428019106388,42.770214099437,0.0],[-7.466545701026917,42.770361453294754,0.0],[-7.46665382757783,42.77066437527537,0.0],[-7.466727588325739,42.770867720246315,0.0],[-7.466952726244927,42.77087073773146,0.0],[-7.467120531946421,42.771000657230616,0.0],[-7.467174008488655,42.77114029973745,0.0],[-7.467154562473298,42.77122529223561,0.0],[-7.467090524733067,42.77143735438585,0.0],[-7.46709505096078,42.77153290808201,0.0],[-7.467317171394825,42.77173323556781,0.0],[-7.468011025339365,42.77236606925726,0.0],[-7.468426935374737,42.77266647666693,0.0],[-7.468954492360354,42.77308205142617,0.0],[-7.469260767102242,42.77326410636306,0.0],[-7.46968673542142,42.77344934642315,0.0],[-7.469882871955634,42.77355981990695,0.0],[-7.470916192978621,42.774202544242144,0.0],[-7.470996491611004,42.77430262416601,0.0],[-7.471232526004315,42.77462163940072,0.0],[-7.471464704722166,42.774818278849125,0.0],[-7.471775505691767,42.77493378147483,0.0],[-7.472006678581238,42.775012236088514,0.0],[-7.472223602235318,42.774952221661806,0.0],[-7.473473679274321,42.774566654115915,0.0],[-7.475774176418782,42.77387011796236,0.0],[-7.476156391203404,42.77366828173399,0.0],[-7.476406842470169,42.77353886514902,0.0],[-7.476604487746954,42.773510701954365,0.0],[-7.476752176880837,42.7734692953527,0.0],[-7.476885449141264,42.77333216741681,0.0],[-7.47710706666112,42.77318079024553,0.0],[-7.477391883730889,42.77316486462951,0.0],[-7.477761693298817,42.773150112479925,0.0],[-7.478090431541205,42.77312412858009,0.0],[-7.478316072374583,42.77308138087392,0.0],[-7.478496450930834,42.77295967563987,0.0],[-7.478706166148186,42.77284702286124,0.0],[-7.478924933820963,42.77280796319246,0.0],[-7.479178402572871,42.77275750413537,0.0],[-7.479390632361174,42.772691287100315,0.0],[-7.479554414749146,42.77263965457678,0.0],[-7.479663882404566,42.77259958907962,0.0],[-7.479768488556147,42.77258114889264,0.0],[-7.47988248243928,42.77261182665825,0.0],[-7.479937467724085,42.772667817771435,0.0],[-7.47997384518385,42.77279421687126,0.0],[-7.479978874325753,42.77293251827359,0.0],[-7.479869574308396,42.773052379488945,0.0],[-7.479821294546128,42.773237619549036,0.0],[-7.479863036423922,42.77351640164852,0.0],[-7.479928582906723,42.773726619780064,0.0],[-7.480051629245282,42.77421595528722,0.0],[-7.48014634475112,42.77441829442978,0.0],[-7.480352707207203,42.77470897883177,0.0],[-7.480573151260615,42.77493562549353,0.0],[-7.480668537318707,42.774992790073156,0.0],[-7.480727210640908,42.77507459744811,0.0],[-7.480729222297669,42.775150034576654,0.0],[-7.480724193155766,42.7752772718668,0.0],[-7.480818741023541,42.77554716914892,0.0],[-7.4811333976686,42.77624521404505,0.0],[-7.48124185949564,42.77652768418193,0.0],[-7.481393236666918,42.77675734832883,0.0],[-7.481642346829176,42.77702087536454,0.0],[-7.481620218604803,42.77711844071746,0.0],[-7.481875028461218,42.77791656553745,0.0],[-7.482113912701607,42.77835141867399,0.0],[-7.482752446085215,42.77926940470934,0.0],[-7.483193334192038,42.7801158092916,0.0],[-7.48328821733594,42.78041370213032,0.0],[-7.483292073011399,42.780425772070885,0.0],[-7.483298778533936,42.780453599989414,0.0],[-7.483462058007718,42.78074277564883,0.0],[-7.483880985528231,42.78104284778237,0.0],[-7.484258003532887,42.78115063905716,0.0],[-7.484780531376601,42.781146448105574,0.0],[-7.485626097768546,42.78101418167353,0.0],[-7.486208304762841,42.78096741065383,0.0],[-7.486852034926415,42.780961375683546,0.0],[-7.487473636865616,42.780951987951994,0.0],[-7.487731967121363,42.7809913828969,0.0],[-7.488158103078604,42.781104035675526,0.0],[-7.489010039716959,42.78109263628721,0.0],[-7.489902209490538,42.78106464073062,0.0],[-7.490485589951277,42.78102708980441,0.0],[-7.490864451974631,42.7810363098979,0.0],[-7.491405084729195,42.78093857690692,0.0],[-7.491905987262726,42.78078854084015,0.0],[-7.492356933653355,42.780680917203426,0.0],[-7.492786590009928,42.780573293566704,0.0],[-7.493203170597554,42.78053842484951,0.0],[-7.493466697633267,42.78053641319275,0.0],[-7.493685297667981,42.78037900105119,0.0],[-7.493945807218552,42.780262157320976,0.0],[-7.494113277643919,42.78022259473801,0.0],[-7.494394071400166,42.7802106924355,0.0],[-7.494580484926701,42.78027791529894,0.0],[-7.494622226804495,42.78042929247022,0.0],[-7.495052888989449,42.78069382533431,0.0],[-7.495349608361721,42.78085073456168,0.0],[-7.495604418218136,42.7809845097363,0.0],[-7.495809271931649,42.78084369376302,0.0],[-7.495963834226132,42.780671529471874,0.0],[-7.495968528091908,42.78048159554601,0.0],[-7.49589141458273,42.78011664748192,0.0],[-7.495873309671879,42.779973819851875,0.0],[-7.495876830071211,42.77983149513602,0.0],[-7.495923601090908,42.779673747718334,0.0],[-7.496043294668198,42.77954014018178,0.0],[-7.496210429817439,42.77950644493103,0.0],[-7.496477980166674,42.77949672192335,0.0],[-7.496805880218745,42.77948196977377,0.0],[-7.497392613440752,42.77937652543187,0.0],[-7.498298361897469,42.77926169335842,0.0],[-7.499012500047684,42.779065389186144,0.0],[-7.499259933829308,42.778978887945414,0.0],[-7.499389182776213,42.77886925265193,0.0],[-7.499450538307429,42.77876749634743,0.0],[-7.499450370669365,42.77863087132573,0.0],[-7.499705851078034,42.778456192463636,0.0],[-7.500059735029936,42.77817623689771,0.0],[-7.500269617885352,42.777939196676016,0.0],[-7.500480338931084,42.77785252779722,0.0],[-7.500647641718388,42.777829729020596,0.0],[-7.500867079943419,42.77782352641225,0.0],[-7.500991132110358,42.77780022472143,0.0],[-7.501240074634552,42.777746580541134,0.0],[-7.501401342451573,42.77772109955549,0.0],[-7.501980867236853,42.77778211981058,0.0],[-7.502234168350697,42.777472492307425,0.0],[-7.502323016524315,42.77741800993681,0.0],[-7.502899020910263,42.77730451896787,0.0],[-7.503420878201723,42.77732379734516,0.0],[-7.503610644489527,42.7774322591722,0.0],[-7.503779288381339,42.77749193832278,0.0],[-7.504256051033736,42.77753468602896,0.0],[-7.504677828401328,42.77750048786402,0.0],[-7.505090553313494,42.77727384120226,0.0],[-7.505247462540865,42.77725540101528,0.0],[-7.505575865507126,42.777221873402596,0.0],[-7.505928240716458,42.77718750759959,0.0],[-7.50621322542429,42.777238469570875,0.0],[-7.506709434092045,42.77748188003898,0.0],[-7.507642339915038,42.77809342369437,0.0],[-7.508068475872279,42.77835628017783,0.0],[-7.508314903825522,42.77873430401087,0.0],[-7.508512884378434,42.778803538531065,0.0],[-7.508729137480259,42.778744362294674,0.0],[-7.508966680616141,42.778672613203526,0.0],[-7.509208582341671,42.77858443558216,0.0],[-7.509407903999091,42.77842400595546,0.0],[-7.509533129632473,42.77816265821457,0.0],[-7.509757094085217,42.77832593768835,0.0],[-7.509913165122271,42.77837052941322,0.0],[-7.510222624987364,42.77843289077282,0.0],[-7.51056594774127,42.77851385995746,0.0],[-7.510820422321558,42.77858208864927,0.0],[-7.511108759790659,42.77866121381521,0.0],[-7.51132283359766,42.77875408530235,0.0],[-7.511475887149573,42.778785433620214,0.0],[-7.511909734457732,42.77879750356078,0.0],[-7.512365207076073,42.77872575446963,0.0],[-7.512530330568552,42.778688203543425,0.0],[-7.512652538716793,42.778694070875645,0.0],[-7.512819673866034,42.77872759848833,0.0],[-7.513353433459998,42.77890428900719,0.0],[-7.51366725191474,42.77899431064725,0.0],[-7.513820137828589,42.779023479670286,0.0],[-7.513974197208882,42.77901090681553,0.0],[-7.514282818883658,42.77895826846361,0.0],[-7.514460012316704,42.7789312787354,0.0],[-7.51455020159483,42.77896597981453,0.0],[-7.514843903481961,42.77917938306928,0.0],[-7.515017911791802,42.7792283333838,0.0],[-7.515172474086285,42.77922347187996,0.0],[-7.515252772718668,42.779216431081295,0.0],[-7.515687625855208,42.77959210798144,0.0],[-7.516031786799431,42.779649775475264,0.0],[-7.516539730131627,42.77968028560281,0.0],[-7.516805268824101,42.779684979468584,0.0],[-7.517175078392029,42.779842894524336,0.0],[-7.517600376158953,42.780038360506296,0.0],[-7.518006563186646,42.78013860806823,0.0],[-7.519118506461382,42.7803904004395,0.0],[-7.519310452044011,42.78045628219843,0.0],[-7.519519999623299,42.7806805819273,0.0],[-7.519729714840651,42.78090488165617,0.0],[-7.52006683498621,42.78119405731559,0.0],[-7.520579136908055,42.78134325519204,0.0],[-7.52077678218484,42.78148440644145,0.0],[-7.520745266228915,42.781591191887856,0.0],[-7.520711403340102,42.78178146108985,0.0],[-7.520759850740433,42.78188372030854,0.0],[-7.520946431905032,42.78199754655361,0.0],[-7.521139886230231,42.78214858844876,0.0],[-7.521199397742749,42.78229124844074,0.0],[-7.521168552339077,42.7823556214571,0.0],[-7.521084733307362,42.782530300319195,0.0],[-7.521071657538414,42.78272761031985,0.0],[-7.521122787147761,42.78286708518863,0.0],[-7.521209120750428,42.7829359844327,0.0],[-7.521248515695334,42.78299633413553,0.0],[-7.521217670291663,42.783205546438694,0.0],[-7.521321941167117,42.78337586671114,0.0],[-7.521410118788481,42.78353948146105,0.0],[-7.521169222891331,42.7837510406971,0.0],[-7.521014660596848,42.78405178338289,0.0],[-7.521190512925387,42.78430240228772,0.0],[-7.521317750215531,42.78457146137953,0.0],[-7.521522101014853,42.784919645637274,0.0],[-7.52178579568863,42.78507202863693,0.0],[-7.522097937762738,42.78527336195111,0.0],[-7.52220556139946,42.78529582545161,0.0],[-7.522377725690604,42.78527956455946,0.0],[-7.522635217756033,42.7851996012032,0.0],[-7.522930763661862,42.78510170057416,0.0],[-7.523370981216431,42.78491294011474,0.0],[-7.523722853511572,42.784744799137115,0.0],[-7.523972969502211,42.78461538255215,0.0],[-7.524289637804032,42.784514632076025,0.0],[-7.524892631918192,42.78434967622161,0.0],[-7.525094468146563,42.78428949415684,0.0],[-7.525322958827019,42.78419075533748,0.0],[-7.525513898581267,42.78409134596586,0.0],[-7.525683213025332,42.784019596874714,0.0],[-7.525804918259383,42.784011885523796,0.0],[-7.525964006781578,42.7840169146657,0.0],[-7.5261390209198,42.78405010700226,0.0],[-7.526323255151511,42.784061674028635,0.0],[-7.526495587080717,42.78403619304299,0.0],[-7.526643108576537,42.78399797156453,0.0],[-7.526906132698059,42.78386252000928,0.0],[-7.527291364967823,42.78369169682264,0.0],[-7.527447603642941,42.78363822028041,0.0],[-7.527666538953782,42.78359781950712,0.0],[-7.527821268886328,42.78360586613417,0.0],[-7.52807641401887,42.78362765908241,0.0],[-7.528506070375443,42.7837042696774,0.0],[-7.528740093111992,42.78372874483466,0.0],[-7.528944276273251,42.78374483808875,0.0],[-7.529140748083592,42.78378004208207,0.0],[-7.529313918203116,42.78381759300828,0.0],[-7.529610972851515,42.783786077052355,0.0],[-7.529686745256186,42.783925384283066,0.0],[-7.530108522623778,42.78390124440193,0.0],[-7.530618142336607,42.78392085805535,0.0],[-7.530939504504204,42.783797811716795,0.0],[-7.531188614666462,42.783566638827324,0.0],[-7.531534787267447,42.783467061817646,0.0],[-7.531849443912506,42.7834608592093,0.0],[-7.532733399420977,42.78353160247207,0.0],[-7.532908245921135,42.78355859220028,0.0],[-7.532908245921135,42.78355859220028,0.0],[-7.533286269754172,42.78361693024635,0.0],[-7.533396910876036,42.78362648561597,0.0],[-7.533434964716435,42.78350813314319,0.0],[-7.533937208354474,42.78349103406072,0.0],[-7.535173539072276,42.7835956402123,0.0],[-7.535551730543375,42.78363520279527,0.0],[-7.53617886453867,42.783751878887415,0.0],[-7.536716479808093,42.78383368626237,0.0],[-7.537663970142603,42.78394214808941,0.0],[-7.538416162133217,42.78414163738489,0.0],[-7.539113033562899,42.78425261378288,0.0],[-7.539292238652707,42.78427893295884,0.0],[-7.539393994957209,42.78421523049474,0.0],[-7.540477942675352,42.78434397652745,0.0],[-7.540580201894045,42.78437063097954,0.0],[-7.541146483272314,42.78466634452343,0.0],[-7.541368436068297,42.78481353074312,0.0],[-7.541703209280968,42.78495853766799,0.0],[-7.542007975280285,42.78499625623226,0.0],[-7.542343251407147,42.785121984779835,0.0],[-7.542429082095623,42.78494529426098,0.0],[-7.542506530880928,42.784819565713406,0.0],[-7.542634271085263,42.784728705883026,0.0],[-7.542789503932,42.78475385159254,0.0],[-7.543115057051182,42.784747648984194,0.0],[-7.543206587433815,42.78482157737017,0.0],[-7.543409932404757,42.7849080786109,0.0],[-7.543747052550316,42.78494294732809,0.0],[-7.543912176042796,42.784940768033266,0.0],[-7.544659338891507,42.78491176664829,0.0],[-7.544786743819714,42.784893326461315,0.0],[-7.545168623328209,42.78462326154113,0.0],[-7.545482106506825,42.784427125006914,0.0],[-7.545586545020342,42.784392926841974,0.0],[-7.545739933848381,42.78437985107303,0.0],[-7.546006813645363,42.78439795598388,0.0],[-7.546215523034335,42.784748654812574,0.0],[-7.54629448056221,42.78498686850071,0.0],[-7.546366900205613,42.7851221524179,0.0],[-7.546540908515454,42.78507001698017,0.0],[-7.546836789697409,42.78495367616415,0.0],[-7.547093946486712,42.78472702950239,0.0],[-7.54723459482193,42.78455754742026,0.0],[-7.547649331390858,42.78447423130274,0.0],[-7.547839265316725,42.78443852439523,0.0],[-7.548171021044255,42.78422746807337,0.0],[-7.548436559736729,42.78410291299224,0.0],[-7.54900636151433,42.784008868038654,0.0],[-7.549558058381081,42.78395254164934,0.0],[-7.550230622291565,42.783965952694416,0.0],[-7.550573777407408,42.78416208922863,0.0],[-7.550993040204049,42.784290835261345,0.0],[-7.551395371556282,42.78429049998522,0.0],[-7.551761325448752,42.78420215472579,0.0],[-7.552168518304825,42.78422495350242,0.0],[-7.552965637296439,42.784073408693075,0.0],[-7.553396467119456,42.783995289355516,0.0],[-7.553700059652329,42.78393376618624,0.0],[-7.553908936679364,42.78392085805535,0.0],[-7.554243039339781,42.783815916627645,0.0],[-7.554365247488022,42.78374148532748,0.0],[-7.555177621543408,42.78307629749179,0.0],[-7.555411141365767,42.78294252231717,0.0],[-7.555429916828871,42.782835233956575,0.0],[-7.555673494935036,42.782793659716845,0.0],[-7.5558808632195,42.78286188840866,0.0],[-7.556081861257553,42.78294403105974,0.0],[-7.556275650858879,42.782951071858406,0.0],[-7.556463740766049,42.782995495945215,0.0],[-7.55664998665452,42.78312440961599,0.0],[-7.556924745440483,42.78343990445137,0.0],[-7.556961122900248,42.783584240823984,0.0],[-7.557027842849493,42.78367141261697,0.0],[-7.557372841984034,42.784209195524454,0.0],[-7.557768300175667,42.78448613360524,0.0],[-7.558351680636406,42.78465276584029,0.0],[-7.558580171316862,42.78464572504163,0.0],[-7.558978646993637,42.78452418744564,0.0],[-7.559087108820677,42.78453944250941,0.0],[-7.55913270637393,42.78457581996918,0.0],[-7.559191547334195,42.78463415801525,0.0],[-7.559299673885107,42.784768771380186,0.0],[-7.559468820691109,42.7848975174129,0.0],[-7.55976252257824,42.785090301185846,0.0],[-7.55983779206872,42.78515601530671,0.0],[-7.559992354363203,42.78530940413475,0.0],[-7.560464423149825,42.78572045266628,0.0],[-7.560921739786864,42.7860302478075,0.0],[-7.561006899923087,42.78606930747628,0.0],[-7.561412416398526,42.78608288615942,0.0],[-7.561791613698006,42.78614575043321,0.0],[-7.562039382755757,42.78628522530198,0.0],[-7.562244236469269,42.78631221503019,0.0],[-7.562477756291628,42.786527797579765,0.0],[-7.562762573361397,42.78670499101281,0.0],[-7.5628418661654,42.78692761436105,0.0],[-7.563198599964381,42.78699131682515,0.0],[-7.563416529446841,42.78695208951831,0.0],[-7.563759684562683,42.787100952118635,0.0],[-7.56409278139472,42.78731821104884,0.0],[-7.565055526793003,42.78760235756636,0.0],[-7.565520890057087,42.787786927074194,0.0],[-7.565738819539547,42.787949200719595,0.0],[-7.566134277731181,42.78801206499338,0.0],[-7.566572483628989,42.78812471777201,0.0],[-7.566869538277388,42.7883667871356,0.0],[-7.566938102245331,42.78842194005847,0.0],[-7.567007169127465,42.78848513960838,0.0],[-7.567168269306422,42.78850978240371,0.0],[-7.567374464124442,42.788505759090185,0.0],[-7.567541599273682,42.78848145157099,0.0],[-7.567662131041289,42.78852889314294,0.0],[-7.568028084933758,42.788652274757624,0.0],[-7.568342071026564,42.788715809583664,0.0],[-7.568578775972128,42.78869401663542,0.0],[-7.568706683814526,42.788687478750944,0.0],[-7.568956296890974,42.78878269717097,0.0],[-7.56941881030798,42.788845393806696,0.0],[-7.56965333595872,42.78900096192956,0.0],[-7.570236213505268,42.78923163190484,0.0],[-7.570522204041481,42.789378482848406,0.0],[-7.570840045809746,42.789565566927195,0.0],[-7.571171969175339,42.790000420063734,0.0],[-7.571674548089505,42.79042571783066,0.0],[-7.57215952500701,42.790795024484396,0.0],[-7.57230956107378,42.790866773575544,0.0],[-7.572573591023684,42.7909398637712,0.0],[-7.572896126657725,42.79094388708472,0.0],[-7.573474980890751,42.79099116101861,0.0],[-7.573814280331135,42.790971044451,0.0],[-7.574395146220923,42.7909485809505,0.0],[-7.57483184337616,42.790940031409264,0.0],[-7.575115654617548,42.79097154736519,0.0],[-7.575512453913689,42.79104631394148,0.0],[-7.575815040618182,42.79109191149473,0.0],[-7.576708383858204,42.79105452820659,0.0],[-7.57734339684248,42.79096467420459,0.0],[-7.578377891331911,42.790798880159855,0.0],[-7.579007372260094,42.790777925401926,0.0],[-7.57958471775055,42.79081815853715,0.0],[-7.58018720895052,42.79088420793414,0.0],[-7.581079546362162,42.791018318384886,0.0],[-7.582631036639214,42.791219148784876,0.0],[-7.582894060760737,42.79133414849639,0.0],[-7.583024650812149,42.791433557868004,0.0],[-7.583060190081597,42.79149457812309,0.0],[-7.583171501755715,42.79150027781725,0.0],[-7.583407033234835,42.79144428670406,0.0],[-7.583732586354018,42.79171468690038,0.0],[-7.583978176116944,42.7920295111835,0.0],[-7.58399410173297,42.79232690110803,0.0],[-7.584374304860831,42.79273057356477,0.0],[-7.584699522703886,42.79317229986191,0.0],[-7.58627599105239,42.793739922344685,0.0],[-7.586574386805296,42.79390404000878,0.0],[-7.58679885417223,42.79403228312731,0.0],[-7.587086185812951,42.79407620429993,0.0],[-7.587798647582531,42.793921642005444,0.0],[-7.588099390268326,42.793991547077894,0.0],[-7.588314637541771,42.7941295132041,0.0],[-7.588967923074961,42.7942450158298,0.0],[-7.590023875236512,42.7943816408515,0.0],[-7.590623013675213,42.79441265389323,0.0],[-7.591331955045462,42.79430419206619,0.0],[-7.59223435074091,42.79456101357937,0.0],[-7.593114282935858,42.79480945318937,0.0],[-7.593608144670725,42.79489008709788,0.0],[-7.594054397195578,42.79492462053895,0.0],[-7.594308871775866,42.79493836686015,0.0],[-7.595379073172808,42.795200888067484,0.0],[-7.596181724220515,42.795284539461136,0.0],[-7.59685629978776,42.795227374881506,0.0],[-7.597035337239504,42.79519569128752,0.0],[-7.597504891455174,42.79536299407482,0.0],[-7.598274350166321,42.79554236680269,0.0],[-7.598585486412049,42.79557153582573,0.0],[-7.599256709218026,42.79549475759268,0.0],[-7.599821481853724,42.795535661280155,0.0],[-7.60076578706503,42.79564931988716,0.0],[-7.601045072078705,42.79553817585111,0.0],[-7.601261995732785,42.795530296862125,0.0],[-7.60165460407734,42.795488722622395,0.0],[-7.601944282650948,42.79545150697231,0.0],[-7.602198086678982,42.79551504179835,0.0],[-7.602333705872298,42.795689050108194,0.0],[-7.602724973112345,42.795711010694504,0.0],[-7.603217829018832,42.795688044279814,0.0],[-7.6035475730896,42.79561277478933,0.0],[-7.603653017431498,42.795396856963634,0.0],[-7.60390380397439,42.79530482366681,0.0],[-7.604162637144328,42.79510114341974,0.0],[-7.604471258819104,42.795101813971996,0.0],[-7.604787256568671,42.795101311057806,0.0],[-7.605194952338934,42.79521597549319,0.0],[-7.605512626469136,42.79529778286815,0.0],[-7.605604995042086,42.795330472290516,0.0],[-7.605718318372965,42.79539383947849,0.0],[-7.605824768543244,42.79544262215495,0.0],[-7.605988718569279,42.79547883197665,0.0],[-7.606245540082455,42.79549777507782,0.0],[-7.606601268053055,42.79557757079601,0.0],[-7.607253212481738,42.79565166682005,0.0],[-7.607833072543145,42.795701287686825,0.0],[-7.608073465526104,42.79576616361737,0.0],[-7.608425337821246,42.79590396210551,0.0],[-7.608766816556454,42.79596095904708,0.0],[-7.609179876744748,42.796060871332884,0.0],[-7.609303090721369,42.79632657766342,0.0],[-7.609142996370793,42.796452809125185,0.0],[-7.609078623354435,42.79652589932084,0.0],[-7.609059177339077,42.79658256098628,0.0],[-7.609830480068922,42.79656697064638,0.0],[-7.610327862203122,42.796453312039375,0.0],[-7.610533386468888,42.79643604531884,0.0],[-7.610724996775389,42.79650092124939,0.0],[-7.610929347574711,42.79663134366274,0.0],[-7.611316591501236,42.796972654759884,0.0],[-7.611872646957636,42.79752468690276,0.0],[-7.612394504249096,42.79796725139022,0.0],[-7.612485531717539,42.79800647869706,0.0],[-7.612511515617371,42.7980787307024,0.0],[-7.612755093723536,42.7984706684947,0.0],[-7.612983584403992,42.79876654967666,0.0],[-7.613188773393631,42.79896738007665,0.0],[-7.613454982638359,42.799096293747425,0.0],[-7.613783720880747,42.799218501895666,0.0],[-7.614130564033986,42.799291256815195,0.0],[-7.614292167127133,42.799467109143734,0.0],[-7.614598944783211,42.79979266226292,0.0],[-7.614899855107069,42.800033055245876,0.0],[-7.615237981081009,42.80016565695405,0.0],[-7.615452222526074,42.800221145153046,0.0],[-7.615576274693013,42.800225503742695,0.0],[-7.61569194495678,42.8002648986876,0.0],[-7.615883722901345,42.8005413338542,0.0],[-7.616080697625876,42.8006274998188,0.0],[-7.61635797098279,42.800659351050854,0.0],[-7.616542875766755,42.80070561915636,0.0],[-7.616836745291949,42.800731770694256,0.0],[-7.617051992565394,42.80080469325185,0.0],[-7.617160454392434,42.80083956196904,0.0],[-7.617006059736014,42.80093930661678,0.0],[-7.617105972021819,42.80099479481578,0.0],[-7.616133000701666,42.80161153525114,0.0],[-7.615706194192171,42.80194949358702,0.0],[-7.61551508679986,42.80204823240638,0.0],[-7.615249883383513,42.802100367844105,0.0],[-7.615051399916411,42.80222190544009,0.0],[-7.61682216078043,42.80495021492243,0.0],[-7.616854514926672,42.804965637624264,0.0]]}}]}
