{"type":"FeatureCollection","features":[{"type":"Feature","properties":{"stage":2,"origin":"Portomarín","destination":"Palas de Rei","source_file":"ES01c29a-Portomarin-PalasdeRei.kml","source":"FEAACS / CNIG-IGN","license":"CC-BY 4.0"},"geometry":{"type":"LineString","coordinates":[[-7.616854514926672,42.804965637624264,0.0],[-7.616864070296288,42.80497033149004,0.0],[-7.617191467434168,42.80498810112476,0.0],[-7.617792617529631,42.805124558508396,0.0],[-7.618357725441456,42.805263698101044,0.0],[-7.618599459528923,42.80538825318217,0.0],[-7.618825268000365,42.80558690428734,0.0],[-7.618991062045098,42.80573911964893,0.0],[-7.619944922626019,42.805300410836935,0.0],[-7.619884740561247,42.80523285269737,0.0],[-7.619701344519854,42.80465232208371,0.0],[-7.619509901851416,42.8044456243515,0.0],[-7.619281075894833,42.804214619100094,0.0],[-7.619208656251431,42.804045639932156,0.0],[-7.619228940457106,42.80388806015253,0.0],[-7.61938501149416,42.80372964218259,0.0],[-7.61971089988947,42.80351338908076,0.0],[-7.620169557631016,42.8032299131155,0.0],[-7.62061681598425,42.80294694006443,0.0],[-7.621213104575873,42.802565563470125,0.0],[-7.621417287737132,42.802443858236074,0.0],[-7.621768657118082,42.80208645388484,0.0],[-7.622047606855631,42.80177330598235,0.0],[-7.622313480824232,42.801469545811415,0.0],[-7.622592598199845,42.80136611312628,0.0],[-7.62284740805626,42.801234014332294,0.0],[-7.623012531548739,42.801166120916605,0.0],[-7.623177152127028,42.801103089004755,0.0],[-7.623321656137705,42.80100217089057,0.0],[-7.623652741312981,42.80087208375335,0.0],[-7.623875197023154,42.800774686038494,0.0],[-7.624113745987416,42.80063604936004,0.0],[-7.62441348284483,42.800506465137005,0.0],[-7.624773737043143,42.80023019760847,0.0],[-7.624953947961331,42.799996845424175,0.0],[-7.625132314860821,42.79985535889864,0.0],[-7.62541763484478,42.79989592730999,0.0],[-7.625609580427409,42.799890730530024,0.0],[-7.625930942595005,42.799827698618174,0.0],[-7.626285832375288,42.799772545695305,0.0],[-7.626407034695149,42.79976902529597,0.0],[-7.626551035791636,42.799800373613834,0.0],[-7.6267066039145,42.79992626979947,0.0],[-7.626797463744879,42.80008586123586,0.0],[-7.626897711306811,42.800270430743694,0.0],[-7.626983541995287,42.80034586787224,0.0],[-7.627093680202961,42.800402361899614,0.0],[-7.62729836627841,42.80052674934268,0.0],[-7.627731040120125,42.800724897533655,0.0],[-7.628074027597905,42.800924219191074,0.0],[-7.628459092229605,42.8011198528111,0.0],[-7.628861758857966,42.801167629659176,0.0],[-7.629431895911694,42.80125044286251,0.0],[-7.629892397671938,42.80139243230224,0.0],[-7.630288023501635,42.80151078477502,0.0],[-7.630797140300274,42.80172552913427,0.0],[-7.631389908492566,42.801989894360304,0.0],[-7.631858289241791,42.80217379331589,0.0],[-7.632317282259465,42.802264988422394,0.0],[-7.63284333050251,42.802341766655445,0.0],[-7.633115239441395,42.80238401144743,0.0],[-7.633389830589295,42.802417036145926,0.0],[-7.63370918110013,42.80247671529651,0.0],[-7.634336818009615,42.802646700292826,0.0],[-7.635259162634612,42.80290553346276,0.0],[-7.636257112026215,42.80316889286041,0.0],[-7.636750303208828,42.803321443498135,0.0],[-7.637210302054882,42.803484722971916,0.0],[-7.637665774673224,42.80364850535989,0.0],[-7.638016641139985,42.803835924714804,0.0],[-7.6383594609797,42.804160472005606,0.0],[-7.638924904167653,42.80471719801426,0.0],[-7.639359924942255,42.80516663566232,0.0],[-7.639621105045081,42.80548078939319,0.0],[-7.639758735895157,42.80561305582523,0.0],[-7.639907263219357,42.80571699142456,0.0],[-7.64032619073987,42.805985044687986,0.0],[-7.640731371939183,42.80636843293905,0.0],[-7.641047537326813,42.80668795108795,0.0],[-7.641334533691407,42.80690671876073,0.0],[-7.641526646912098,42.80708055943251,0.0],[-7.6415403932333,42.807180136442184,0.0],[-7.641482893377543,42.80735246837139,0.0],[-7.641724962741137,42.80731240287423,0.0],[-7.64222837984562,42.80729463323951,0.0],[-7.642782256007195,42.80729614198208,0.0],[-7.643383238464594,42.80834974721074,0.0],[-7.643748186528683,42.80897453427315,0.0],[-7.64413258060813,42.80970945954323,0.0],[-7.644451092928648,42.81040968373418,0.0],[-7.644662652164698,42.81094277277589,0.0],[-7.645660769194365,42.81148826703429,0.0],[-7.646013647317887,42.811630591750145,0.0],[-7.646458223462105,42.81172161921859,0.0],[-7.648372817784548,42.81178230419755,0.0],[-7.654615659266711,42.811941895633936,0.0],[-7.656516171991825,42.812025882303715,0.0],[-7.65769986435771,42.81206360086799,0.0],[-7.65840394422412,42.81212428584695,0.0],[-7.658974584192038,42.81207852065563,0.0],[-7.660105805844069,42.8122666105628,0.0],[-7.661350015550852,42.81246677041054,0.0],[-7.661717478185892,42.81252812594175,0.0],[-7.662051413208247,42.81258210539818,0.0],[-7.662550304085017,42.81263088807464,0.0],[-7.663120441138745,42.81273867934942,0.0],[-7.663649674504996,42.812725603580475,0.0],[-7.663860395550728,42.81272007152438,0.0],[-7.664051838219166,42.81289089471102,0.0],[-7.664290890097618,42.81313430517912,0.0],[-7.66456950455904,42.81335910782218,0.0],[-7.664793636649847,42.81347880139947,0.0],[-7.665336951613427,42.813756074756384,0.0],[-7.666086126118899,42.814008202403784,0.0],[-7.666698675602675,42.814302407205105,0.0],[-7.66726965084672,42.81455855816603,0.0],[-7.667555138468743,42.814692836254835,0.0],[-7.668119408190251,42.81486164778471,0.0],[-7.66850732266903,42.81495971605182,0.0],[-7.66883471980691,42.81511327251792,0.0],[-7.669066563248635,42.81517429277301,0.0],[-7.669225484132767,42.815195415169,0.0],[-7.669496051967144,42.81531024724245,0.0],[-7.66978606581688,42.81544033437967,0.0],[-7.670075912028551,42.81555416062474,0.0],[-7.670783512294293,42.815768234431744,0.0],[-7.671452891081572,42.8160329349339,0.0],[-7.671893276274205,42.81619604676962,0.0],[-7.672401890158654,42.81621130183339,0.0],[-7.673053666949273,42.81625622883439,0.0],[-7.673678454011679,42.8163387067616,0.0],[-7.674158569425345,42.816530987620354,0.0],[-7.674642708152533,42.8168860450387,0.0],[-7.674925178289414,42.81715761870146,0.0],[-7.675300016999245,42.817609403282404,0.0],[-7.675759345293045,42.818338461220264,0.0],[-7.676065117120743,42.81870994716883,0.0],[-7.676389664411545,42.81899459660053,0.0],[-7.676598373800517,42.81915284693241,0.0],[-7.676698453724385,42.819242030382156,0.0],[-7.676691915839911,42.81932283192873,0.0],[-7.676652688533068,42.81938435509801,0.0],[-7.676506843417883,42.81957261264324,0.0],[-7.677645105868578,42.8201948851347,0.0],[-7.677768990397454,42.820190861821175,0.0],[-7.677907627075911,42.82021148130298,0.0],[-7.678125891834498,42.82030217349529,0.0],[-7.678552698343993,42.82061917707324,0.0],[-7.678896356374026,42.820841297507286,0.0],[-7.679207492619753,42.82099334523082,0.0],[-7.680113408714533,42.82119954004884,0.0],[-7.680913545191288,42.82131839543581,0.0],[-7.681722398847342,42.821483351290226,0.0],[-7.683826424181462,42.82179147005081,0.0],[-7.685643620789051,42.82206807285547,0.0],[-7.686360273510218,42.82226353883743,0.0],[-7.686864193528891,42.82249387353659,0.0],[-7.687400300055743,42.82279947772622,0.0],[-7.688218038529158,42.82326014712453,0.0],[-7.68905270844698,42.82365443184972,0.0],[-7.68970599398017,42.82402642071247,0.0],[-7.689739186316729,42.82405776903033,0.0],[-7.690408062189818,42.824509385973215,0.0],[-7.69083570688963,42.82467568293214,0.0],[-7.691505923867226,42.82490484416485,0.0],[-7.692919783294201,42.825345899909735,0.0],[-7.69424730911851,42.825743705034256,0.0],[-7.695796452462674,42.82624024897814,0.0],[-7.696163915097714,42.82642062753439,0.0],[-7.696180678904057,42.82642900943756,0.0],[-7.696180678904057,42.82642900943756,0.0],[-7.696295510977507,42.826485335826874,0.0],[-7.69713755697012,42.826965283602476,0.0],[-7.697605602443219,42.82693209126592,0.0],[-7.697927970439196,42.82684424892068,0.0],[-7.698215134441853,42.82674349844456,0.0],[-7.698293589055539,42.82680904492736,0.0],[-7.698762137442828,42.82696411013603,0.0],[-7.699034716933966,42.82715270295739,0.0],[-7.699193134903908,42.82735185697675,0.0],[-7.699272762984038,42.82743651419878,0.0],[-7.69960267469287,42.827607840299606,0.0],[-7.69985044375062,42.82781420275569,0.0],[-7.700107265263796,42.827978655695915,0.0],[-7.700483445078135,42.82827017828822,0.0],[-7.700929362326861,42.828501015901566,0.0],[-7.701178304851056,42.82865943387151,0.0],[-7.701545935124159,42.8289688937366,0.0],[-7.701839804649353,42.829301320016384,0.0],[-7.702140547335148,42.829627711325884,0.0],[-7.702810093760491,42.8297184035182,0.0],[-7.703055515885353,42.82982770353556,0.0],[-7.703368999063969,42.82986592501402,0.0],[-7.70361140370369,42.82994555309415,0.0],[-7.703955732285977,42.83002534881234,0.0],[-7.704229820519686,42.83014219254255,0.0],[-7.704858630895615,42.83041846007109,0.0],[-7.705289795994759,42.83063907176256,0.0],[-7.705543264746666,42.83084359019995,0.0],[-7.705839648842812,42.83091131597757,0.0],[-7.706122789531947,42.830973509699106,0.0],[-7.707508821040392,42.83137081190944,0.0],[-7.708108127117157,42.83150861039758,0.0],[-7.70850894972682,42.8315419703722,0.0],[-7.708688657730818,42.831725869327784,0.0],[-7.709015719592572,42.831739112734795,0.0],[-7.709313444793225,42.831796277314425,0.0],[-7.709690462797881,42.831944804638624,0.0],[-7.709895484149456,42.83211646601558,0.0],[-7.710186168551445,42.832128033041954,0.0],[-7.710914723575116,42.83257747069001,0.0],[-7.712061367928982,42.8332119807601,0.0],[-7.71216630935669,42.83320024609566,0.0],[-7.712711468338967,42.83344516530633,0.0],[-7.713241204619408,42.83359654247761,0.0],[-7.713685110211373,42.833740040659904,0.0],[-7.713961377739907,42.83375646919012,0.0],[-7.714314591139555,42.83369863405824,0.0],[-7.714802082628012,42.83362839370966,0.0],[-7.715105675160885,42.83356636762619,0.0],[-7.71565217524767,42.83349294215441,0.0],[-7.716141007840634,42.83349830657244,0.0],[-7.716817427426577,42.83347349613905,0.0],[-7.717041894793511,42.83349780365825,0.0],[-7.717210035771132,42.83351154997945,0.0],[-7.71755101159215,42.833811957389116,0.0],[-7.718141097575426,42.8339784219861,0.0],[-7.718640826642514,42.83413549885154,0.0],[-7.719292771071196,42.83420205116272,0.0],[-7.720189467072487,42.83423440530896,0.0],[-7.721044085919857,42.83409744501114,0.0],[-7.721386402845383,42.833998035639524,0.0],[-7.72163299843669,42.83418344333768,0.0],[-7.721974812448025,42.83454420045018,0.0],[-7.722406145185233,42.8349837474525,0.0],[-7.722865641117096,42.83523553982377,0.0],[-7.723366040736437,42.83554466441274,0.0],[-7.7235665358603,42.83581405878067,0.0],[-7.723816148936749,42.835893519222736,0.0],[-7.724095433950425,42.83604187890887,0.0],[-7.724421489983797,42.83611614257097,0.0],[-7.724638748914004,42.83638637512922,0.0],[-7.72804331034422,42.83751122653484,0.0],[-7.728843111544848,42.83777626231313,0.0],[-7.729409225285054,42.837994024157524,0.0],[-7.729494385421276,42.83798597753048,0.0],[-7.729656323790551,42.83798346295953,0.0],[-7.729858495295048,42.8380143083632,0.0],[-7.730036191642285,42.838053703308105,0.0],[-7.730430644005537,42.838247660547495,0.0],[-7.730824258178473,42.83846274018288,0.0],[-7.731293141841889,42.838843278586864,0.0],[-7.731651216745377,42.83916497603059,0.0],[-7.732107359915972,42.8396238014102,0.0],[-7.732538357377053,42.8399121388793,0.0],[-7.733186446130276,42.84017449244857,0.0],[-7.73327311500907,42.84022528678179,0.0],[-7.733351904898882,42.84031664952636,0.0],[-7.733491882681847,42.84036710858345,0.0],[-7.733623813837767,42.84045998007059,0.0],[-7.733809389173985,42.840594593435526,0.0],[-7.734018433839083,42.84073339775205,0.0],[-7.734049614518881,42.84078922122717,0.0],[-7.73408129811287,42.84084873273969,0.0],[-7.734414227306843,42.84103397279978,0.0],[-7.734691165387631,42.84143311902881,0.0],[-7.734746485948563,42.841580137610435,0.0],[-7.734648920595646,42.8415853343904,0.0],[-7.734263855963946,42.841655407100916,0.0],[-7.734065372496844,42.84168876707554,0.0],[-7.733959425240755,42.84174827858806,0.0],[-7.733933106064797,42.841809298843145,0.0],[-7.733783405274153,42.84184969961643,0.0],[-7.733696736395359,42.84192396327853,0.0],[-7.733698580414057,42.842008117586374,0.0],[-7.734129577875138,42.842279858887196,0.0],[-7.734353039413691,42.84235144034028,0.0],[-7.734473235905171,42.84237440675497,0.0],[-7.734861318022013,42.84210367128253,0.0],[-7.73549733683467,42.841908540576696,0.0],[-7.736106533557177,42.84207735210657,0.0],[-7.736405264586211,42.842150777578354,0.0],[-7.736885882914067,42.842259239405394,0.0],[-7.737379912286997,42.84247079864144,0.0],[-7.73763656616211,42.842502146959305,0.0],[-7.738994769752026,42.84263860434294,0.0],[-7.7396091632545,42.84267967566848,0.0],[-7.740565873682499,42.84273214638233,0.0],[-7.740829568356276,42.84277891740203,0.0],[-7.741327621042729,42.842927277088165,0.0],[-7.741902451962233,42.843149565160275,0.0],[-7.7425966411829,42.84321075305343,0.0],[-7.745201401412487,42.84340554848313,0.0],[-7.746174708008767,42.84356161952019,0.0],[-7.746779210865498,42.84376563504338,0.0],[-7.747398298233748,42.84402094781399,0.0],[-7.747962065041066,42.84429620951414,0.0],[-7.748211342841387,42.844315487891436,0.0],[-7.748562041670084,42.84421809017658,0.0],[-7.748629096895457,42.84422446042299,0.0],[-7.748629096895457,42.84422446042299,0.0],[-7.748863454908133,42.8442464210093,0.0],[-7.749195042997599,42.84434096887708,0.0],[-7.749649174511433,42.84450374543667,0.0],[-7.750094756484032,42.84468160942197,0.0],[-7.751026321202517,42.844963409006596,0.0],[-7.752052936702967,42.84522291272879,0.0],[-7.752783838659525,42.84545307978988,0.0],[-7.753941044211388,42.84543849527836,0.0],[-7.75455728173256,42.84550806507468,0.0],[-7.755087856203318,42.845648378133774,0.0],[-7.755599487572909,42.8457628749311,0.0],[-7.75623869150877,42.84612497314811,0.0],[-7.75680648162961,42.84654926508665,0.0],[-7.757403105497361,42.847290225327015,0.0],[-7.758159991353751,42.848109472543,0.0],[-7.758811432868243,42.848533261567354,0.0],[-7.759189456701279,42.848869040608406,0.0],[-7.759886160492897,42.84941487014294,0.0],[-7.760363426059485,42.849691305309534,0.0],[-7.761451061815024,42.849949803203344,0.0],[-7.762043327093125,42.850169744342566,0.0],[-7.762784119695425,42.85044467076659,0.0],[-7.76370445266366,42.85078061744571,0.0],[-7.764043081551791,42.850922271609306,0.0],[-7.765365578234196,42.851196862757206,0.0],[-7.76688002049923,42.851628698408604,0.0],[-7.767432387918234,42.85167194902897,0.0],[-7.767918538302184,42.85179717466235,0.0],[-7.769099716097117,42.852229345589876,0.0],[-7.76974244043231,42.85248415544629,0.0],[-7.770026084035635,42.8525354526937,0.0],[-7.770386338233948,42.85259077325463,0.0],[-7.771646641194821,42.852532267570496,0.0],[-7.772202026098967,42.85254014655948,0.0],[-7.772643584758044,42.85267744213343,0.0],[-7.773193940520287,42.853096537292004,0.0],[-7.773729879409075,42.85358922556043,0.0],[-7.774080913513899,42.853857446461916,0.0],[-7.77478700503707,42.85420797765255,0.0],[-7.775175087153912,42.85445138812065,0.0],[-7.775704991072417,42.85472648218274,0.0],[-7.777096722275019,42.85519117489457,0.0],[-7.777418922632933,42.85533802583814,0.0],[-7.777645234018565,42.85558478906751,0.0],[-7.777807172387839,42.855912521481514,0.0],[-7.777870204299689,42.85626724362373,0.0],[-7.77821034193039,42.85671064630151,0.0],[-7.778645027428866,42.85727642476559,0.0],[-7.779022883623839,42.85755503922701,0.0],[-7.779142577201128,42.85784538835287,0.0],[-7.77930099517107,42.858177311718464,0.0],[-7.779400572180748,42.85840982571244,0.0],[-7.779681365936995,42.85870637744665,0.0],[-7.779881861060858,42.85891927778721,0.0],[-7.78012627735734,42.85905908793211,0.0],[-7.780244294553996,42.85918917506933,0.0],[-7.780887018889189,42.859584633260965,0.0],[-7.781269568949938,42.85984279587865,0.0],[-7.781454138457776,42.86003524437547,0.0],[-7.781433686614037,42.860275972634554,0.0],[-7.782452590763569,42.861251290887594,0.0],[-7.782692480832339,42.86137215793133,0.0],[-7.782908901572228,42.8614859841764,0.0],[-7.783071342855692,42.8616757504642,0.0],[-7.783236801624298,42.86193123087287,0.0],[-7.783334702253342,42.86215787753463,0.0],[-7.783454898744822,42.86221940070391,0.0],[-7.784356623888016,42.86248477175832,0.0],[-7.785025499761105,42.8627273440361,0.0],[-7.785098422318697,42.86288660019636,0.0],[-7.785251140594483,42.86339320242405,0.0],[-7.785445433109999,42.863607443869114,0.0],[-7.785937786102295,42.86401329562068,0.0],[-7.786374483257533,42.86435795947909,0.0],[-7.78648478910327,42.864458709955215,0.0],[-7.786857783794403,42.864912673830986,0.0],[-7.78733991086483,42.86538373678923,0.0],[-7.78733991086483,42.86538373678923,0.0],[-7.787348795682192,42.86539228633046,0.0],[-7.787727657705546,42.86554517224431,0.0],[-7.788483873009682,42.86567760631442,0.0],[-7.78931250795722,42.865647096186876,0.0],[-7.789957243949175,42.86555791273713,0.0],[-7.790493685752154,42.86559948697686,0.0],[-7.79131880030036,42.865933924913406,0.0],[-7.79174929484725,42.866051103919744,0.0],[-7.792284060269595,42.86603920161724,0.0],[-7.792836260050536,42.86607272922993,0.0],[-7.793231047689915,42.86612318828702,0.0],[-7.793711666017771,42.86628982052207,0.0],[-7.794692516326905,42.866783514618874,0.0],[-7.796273175626994,42.86756236106157,0.0],[-7.797292917966843,42.86810416728258,0.0],[-7.797818966209889,42.86840407177806,0.0],[-7.799642197787762,42.869892194867134,0.0],[-7.801289074122906,42.871147468686104,0.0],[-7.803313806653023,42.87190988659859,0.0],[-7.803660649806261,42.87204097956419,0.0],[-7.804992534220219,42.87315158173442,0.0],[-7.805678676813841,42.8737361356616,0.0],[-7.805960308760405,42.87379916757345,0.0],[-7.8066979162395,42.87373881787062,0.0],[-7.806970160454512,42.873672265559435,0.0],[-7.807209882885218,42.87352876737714,0.0],[-7.807535100728274,42.87349741905928,0.0],[-7.807971294969321,42.8735688328743,0.0],[-7.808271702378989,42.87370981648564,0.0],[-7.808591052889824,42.87376245483756,0.0],[-7.808949295431376,42.87368768826127,0.0],[-7.809434607625008,42.873533964157104,0.0],[-7.810353599488736,42.873179744929075,0.0],[-7.810706645250321,42.87298360839486,0.0],[-7.8114727512002,42.872506342828274,0.0],[-7.811902575194836,42.87236100062728,0.0],[-7.812676057219506,42.872283551841974,0.0],[-7.813681047409773,42.87220073863864,0.0],[-7.814157642424107,42.87217441946268,0.0],[-7.814166359603405,42.87217391654849,0.0],[-7.814166359603405,42.87217391654849,0.0],[-7.814585119485855,42.872615307569504,0.0],[-7.814977392554284,42.87262436002493,0.0],[-7.815179396420718,42.872696947306395,0.0],[-7.81564811244607,42.873154766857624,0.0],[-7.816159073263407,42.87326591089368,0.0],[-7.81653592363,42.87332944571972,0.0],[-7.81693171709776,42.87334017455578,0.0],[-7.817219216376543,42.873376216739416,0.0],[-7.817431949079037,42.87354385480285,0.0],[-7.817834950983525,42.874132096767426,0.0],[-7.817973922938109,42.874171659350395,0.0],[-7.818167544901371,42.8741835616529,0.0],[-7.818529307842255,42.87407359108329,0.0],[-7.819080669432879,42.873915676027536,0.0],[-7.819690871983767,42.87377938628197,0.0],[-7.820432502776385,42.87359515205026,0.0],[-7.820868026465178,42.87342097610235,0.0],[-7.821412850171328,42.8731750510633,0.0],[-7.821713425219059,42.87312811240554,0.0],[-7.822193205356598,42.8731095045805,0.0],[-7.822677176445723,42.87296315655112,0.0],[-7.822892926633358,42.87297187373042,0.0],[-7.823261562734843,42.872995510697365,0.0],[-7.823630031198264,42.87303239107132,0.0],[-7.824348025023938,42.872941698879,0.0],[-7.824672069400549,42.87294505164027,0.0],[-7.82547052949667,42.87308569997549,0.0],[-7.826320957392455,42.8733391687274,0.0],[-7.826677020639182,42.87355458363891,0.0],[-7.827076334506274,42.873856499791145,0.0],[-7.827575393021107,42.87412639707327,0.0],[-7.82899109646678,42.87473291158676,0.0],[-7.829164601862431,42.87487842142582,0.0],[-7.829382866621018,42.8751434572041,0.0],[-7.829567436128855,42.87521034479141,0.0],[-7.830065824091435,42.8753680922091,0.0],[-7.830546274781227,42.87549700587988,0.0],[-7.831329982727766,42.875644862651825,0.0],[-7.832057029008866,42.87575516849756,0.0],[-7.832750212401152,42.8758604452014,0.0],[-7.833234015852213,42.875915095210075,0.0],[-7.833837512880564,42.87595599889755,0.0],[-7.834444530308247,42.875985503196716,0.0],[-7.834901008754969,42.875994220376015,0.0],[-7.83530903980136,42.87597578018904,0.0],[-7.83570483326912,42.87593822926283,0.0],[-7.835960313677788,42.87591107189655,0.0],[-7.836061734706164,42.87583949044347,0.0],[-7.836298104375601,42.87581132724881,0.0],[-7.836687192320824,42.87582306191325,0.0],[-7.836940325796605,42.87577511742711,0.0],[-7.837275601923466,42.87568308413029,0.0],[-7.837524041533471,42.875594571232796,0.0],[-7.837870046496392,42.87538988515735,0.0],[-7.838687617331744,42.874952014535666,0.0],[-7.83907100558281,42.87478035315871,0.0],[-7.839687746018172,42.87442261353135,0.0],[-7.840116899460555,42.87444910034537,0.0],[-7.841455657035113,42.874368634074926,0.0],[-7.841856647282839,42.874287497252226,0.0],[-7.842199131846428,42.874298729002476,0.0],[-7.842749152332545,42.874377351254225,0.0],[-7.843546606600285,42.87447927519679,0.0],[-7.843753304332495,42.8744563087821,0.0],[-7.844638600945473,42.87442680448294,0.0],[-7.845153752714396,42.87440216168761,0.0],[-7.84571634605527,42.874379865825176,0.0],[-7.846901379525662,42.874295208603144,0.0],[-7.847277559340001,42.874316833913326,0.0],[-7.84807987511158,42.87428615614772,0.0],[-7.848715391010046,42.87429856136441,0.0],[-7.849313020706177,42.87439092993736,0.0],[-7.850176692008973,42.87466702982783,0.0],[-7.850980013608933,42.87489602342248,0.0],[-7.851308584213257,42.87486366927624,0.0],[-7.851784676313401,42.87473442032933,0.0],[-7.851986680179835,42.87457466125488,0.0],[-7.852298486977816,42.87447290495038,0.0],[-7.852565199136734,42.874383218586445,0.0],[-7.853146735578776,42.87424558773637,0.0],[-7.853906638920308,42.874195128679276,0.0],[-7.854818757623434,42.874023132026196,0.0],[-7.855330724269152,42.873985916376114,0.0],[-7.855767086148262,42.87397066131234,0.0],[-7.856242004781962,42.87394450977445,0.0],[-7.856753803789616,42.87390746176243,0.0],[-7.857496943324805,42.87392707541585,0.0],[-7.85778645426035,42.873911652714014,0.0],[-7.857985608279705,42.8738590143621,0.0],[-7.858176715672017,42.873806208372116,0.0],[-7.858840227127076,42.87374082952738,0.0],[-7.85958118736744,42.87366069853306,0.0],[-7.860422898083926,42.87359682843089,0.0],[-7.86136519163847,42.87356363609433,0.0],[-7.861663419753313,42.87351803854108,0.0],[-7.862369008362294,42.87333682179451,0.0],[-7.862716689705849,42.87329776212573,0.0],[-7.863334603607655,42.87338292226195,0.0],[-7.863730061799288,42.87344142794609,0.0],[-7.864053267985583,42.873383928090334,0.0],[-7.864269856363535,42.87328887730837,0.0],[-7.864686269313097,42.87310481071472,0.0],[-7.865044847130776,42.87292007356882,0.0],[-7.865344081074,42.87282586097717,0.0],[-7.865752279758454,42.87276400253177,0.0],[-7.86601010710001,42.87275964394212,0.0],[-7.866407744586468,42.87269711494446,0.0],[-7.866474967449904,42.87278713658452,0.0],[-7.866667248308659,42.872896268963814,0.0],[-7.866890542209149,42.87286860868335,0.0],[-7.867158930748701,42.8728087618947,0.0],[-7.867435701191426,42.87275293841958,0.0],[-7.867664359509945,42.872698456048965,0.0],[-7.867885977029801,42.87264531478286,0.0],[-7.868101391941309,42.87256736308336,0.0],[-7.868198286741972,42.87258546799421,0.0],[-7.8682797588408,42.87269493564963,0.0],[-7.868368104100228,42.87282921373844,0.0],[-7.868504896759987,42.872846983373165,0.0],[-7.868463322520256,42.87306742742658,0.0],[-7.86868778988719,42.87313347682357,0.0],[-7.868968080729247,42.87321712821722,0.0]]}}]}
