{"type":"FeatureCollection","features":[{"type":"Feature","properties":{"stage":3,"origin":"Palas de Rei","destination":"Arzúa","source_file":"ES01c30a-PalasdeRei-Melide.kml","source":"FEAACS / CNIG-IGN","license":"CC-BY 4.0"},"geometry":{"type":"LineString","coordinates":[[-7.868968080729247,42.87321712821722,0.0],[-7.868981156498194,42.87322098389268,0.0],[-7.869273349642754,42.87325635552406,0.0],[-7.870093267410994,42.87319768220186,0.0],[-7.870254535228014,42.87335157394409,0.0],[-7.870400045067072,42.87328653037548,0.0],[-7.87057874724269,42.87343891337514,0.0],[-7.870793659240008,42.87342080846429,0.0],[-7.871200349181891,42.87332911044359,0.0],[-7.872039880603552,42.873264234513044,0.0],[-7.872585374861956,42.87332743406296,0.0],[-7.872655279934407,42.87344327196479,0.0],[-7.87281520664692,42.873828168958426,0.0],[-7.872882261872292,42.873948868364096,0.0],[-7.873015366494656,42.87416344508529,0.0],[-7.873119302093983,42.87418255582452,0.0],[-7.873379308730364,42.87416864186525,0.0],[-7.873633783310652,42.874188255518675,0.0],[-7.873942740261555,42.874238044023514,0.0],[-7.874488905072213,42.8742853179574,0.0],[-7.874621003866196,42.87422530353069,0.0],[-7.874897941946984,42.87411382421851,0.0],[-7.875065915286541,42.87400720641017,0.0],[-7.875143699347973,42.8738690726459,0.0],[-7.875421475619078,42.87376681342721,0.0],[-7.875653486698866,42.873694729059935,0.0],[-7.875670082867146,42.873594649136066,0.0],[-7.87570495158434,42.87341024726629,0.0],[-7.876222617924214,42.87331519648433,0.0],[-7.877057455480099,42.873126436024904,0.0],[-7.877954654395581,42.87297958508134,0.0],[-7.878987472504378,42.87276417016983,0.0],[-7.879810743033886,42.872652523219585,0.0],[-7.880607191473246,42.87259770557284,0.0],[-7.881220579147339,42.872549425810575,0.0],[-7.881375309079886,42.8725859709084,0.0],[-7.881768755614758,42.87270164117217,0.0],[-7.882069498300553,42.872668113559484,0.0],[-7.882228922098875,42.87256199866533,0.0],[-7.882359009236098,42.87237944081426,0.0],[-7.882593367248774,42.87198230624199,0.0],[-7.88302855566144,42.871683575212955,0.0],[-7.884103115648032,42.87158064544201,0.0],[-7.88447828963399,42.87149565294385,0.0],[-7.884762939065695,42.87137646228075,0.0],[-7.884955555200577,42.871326841413975,0.0],[-7.885336596518755,42.87132281810045,0.0],[-7.885566931217909,42.87134611979127,0.0],[-7.885908242315054,42.87138182669878,0.0],[-7.886328510940075,42.87135919556022,0.0],[-7.886554654687643,42.87143865600228,0.0],[-7.887118086218834,42.871540915220976,0.0],[-7.888206224888564,42.87157041952014,0.0],[-7.889040224254132,42.87164535373449,0.0],[-7.889553364366293,42.87168608978391,0.0],[-7.889884617179633,42.87179455161095,0.0],[-7.890186700969935,42.87189329043031,0.0],[-7.890266496688128,42.871725149452686,0.0],[-7.890178319066763,42.8715724311769,0.0],[-7.889986876398325,42.871440667659044,0.0],[-7.889762409031392,42.87120899185538,0.0],[-7.889486812055111,42.87091512233019,0.0],[-7.889482621103526,42.87018304690719,0.0],[-7.890730351209641,42.87024490535259,0.0],[-7.890944425016642,42.87024876102805,0.0],[-7.891249023377896,42.87029402330518,0.0],[-7.891533002257347,42.870392594486475,0.0],[-7.891723271459341,42.870401814579964,0.0],[-7.891871631145478,42.870389241725206,0.0],[-7.892426010221243,42.87052670493722,0.0],[-7.89321156218648,42.8706469014287,0.0],[-7.893754877150059,42.870786879211664,0.0],[-7.894127201288939,42.87082191556692,0.0],[-7.89466766640544,42.870878744870424,0.0],[-7.895191367715598,42.870947141200304,0.0],[-7.895372584462166,42.8710026293993,0.0],[-7.895973902195692,42.87120312452316,0.0],[-7.896272297948599,42.87131292745471,0.0],[-7.896583266556263,42.87137931212783,0.0],[-7.896696925163269,42.87135483697057,0.0],[-7.897009402513504,42.87141300737858,0.0],[-7.89724761620164,42.87149330601096,0.0],[-7.897633016109467,42.87161534652114,0.0],[-7.897803839296103,42.87174040451646,0.0],[-7.897896878421307,42.871781811118126,0.0],[-7.898003496229649,42.87187736481428,0.0],[-7.898130733519793,42.87196470424533,0.0],[-7.898245230317116,42.872065622359514,0.0],[-7.898307926952839,42.872113063931465,0.0],[-7.898408342152834,42.87221213802695,0.0],[-7.898558881133795,42.872366700321436,0.0],[-7.898765411227942,42.872502487152815,0.0],[-7.898918800055981,42.872749753296375,0.0],[-7.899317611008883,42.87315493449569,0.0],[-7.89989160373807,42.873572520911694,0.0],[-7.90028790012002,42.87377754226327,0.0],[-7.900850996375084,42.873987928032875,0.0],[-7.901260703802109,42.874202001839876,0.0],[-7.901441920548678,42.87434550002217,0.0],[-7.901587095111609,42.87447273731232,0.0],[-7.901699580252171,42.87454867735505,0.0],[-7.901855148375035,42.87453543394804,0.0],[-7.902088835835457,42.87448765709996,0.0],[-7.902336940169335,42.87453006953001,0.0],[-7.902532741427422,42.87455337122083,0.0],[-7.902670539915562,42.87456762045622,0.0],[-7.902942448854447,42.874468713998795,0.0],[-7.903143614530564,42.87441339343786,0.0],[-7.903316114097834,42.87444792687893,0.0],[-7.903493475168944,42.874528393149376,0.0],[-7.903570923954249,42.87454331293702,0.0],[-7.903648875653744,42.87453543394804,0.0],[-7.903648875653744,42.87453543394804,0.0],[-7.903736717998982,42.874506264925,0.0],[-7.903853226453066,42.87445044144988,0.0],[-7.903988845646382,42.8743751719594,0.0],[-7.904225382953883,42.874440383166075,0.0],[-7.904362510889769,42.87451280280948,0.0],[-7.904449347406626,42.874696869403124,0.0],[-7.904564179480076,42.87485562264919,0.0],[-7.904694434255362,42.87492820993066,0.0],[-7.90502317249775,42.87504069507122,0.0],[-7.90534419938922,42.87513054907322,0.0],[-7.905678469687701,42.87516675889492,0.0],[-7.90626285597682,42.87521721795201,0.0],[-7.906632833182812,42.875283770263195,0.0],[-7.907036505639553,42.87537848576903,0.0],[-7.907702699303627,42.875465489923954,0.0],[-7.908370569348336,42.87566749379039,0.0],[-7.908667288720608,42.87577796727419,0.0],[-7.908772565424443,42.875845693051815,0.0],[-7.909009605646134,42.875958010554314,0.0],[-7.909328620880843,42.87627920508385,0.0],[-7.909655179828406,42.87654457613826,0.0],[-7.91000135242939,42.876767702400684,0.0],[-7.91096393018961,42.877062410116196,0.0],[-7.911464329808951,42.87720758467913,0.0],[-7.911942433565855,42.87739634513855,0.0],[-7.912210486829281,42.87759717553854,0.0],[-7.912451718002558,42.87777939811349,0.0],[-7.912661265581847,42.877823654562235,0.0],[-7.912906687706709,42.87792457267642,0.0],[-7.913052532821894,42.87794167175889,0.0],[-7.913183122873307,42.8779099881649,0.0],[-7.913287729024887,42.87786556407809,0.0],[-7.913447823375464,42.87788836285472,0.0],[-7.913681343197823,42.877998165786266,0.0],[-7.913839258253575,42.87807460874319,0.0],[-7.914100103080273,42.87808181717992,0.0],[-7.914201021194458,42.87814350798726,0.0],[-7.914287019520998,42.87832221016288,0.0],[-7.91437067091465,42.87845615297556,0.0],[-7.914558257907629,42.87870643660426,0.0],[-7.915026638656855,42.87898454815149,0.0],[-7.915330398827792,42.879081945866346,0.0],[-7.91593573987484,42.879058476537466,0.0],[-7.916145958006382,42.87906249985099,0.0],[-7.916561868041754,42.87917582318187,0.0],[-7.917252033948899,42.87941152229905,0.0],[-7.917730640619994,42.879582680761814,0.0],[-7.917962819337845,42.87967337295413,0.0],[-7.918531782925129,42.87982743233442,0.0],[-7.919019274413586,42.87988979369402,0.0],[-7.919660322368145,42.879938408732414,0.0],[-7.920772600919009,42.879968751221895,0.0],[-7.921320945024491,42.879979982972145,0.0],[-7.921722773462534,42.87996573373675,0.0],[-7.922233231365681,42.879834808409214,0.0],[-7.922728601843119,42.879678066819906,0.0],[-7.923250794410706,42.879532389342785,0.0],[-7.923929728567601,42.87936257198453,0.0],[-7.924697678536177,42.87923935800791,0.0],[-7.925225403159857,42.87921069189906,0.0],[-7.925790175795556,42.87916710600257,0.0],[-7.926061246544123,42.8791293874383,0.0],[-7.926537673920393,42.87891548126936,0.0],[-7.927180398255587,42.878748681396246,0.0],[-7.927579712122679,42.87873409688473,0.0],[-7.927939631044865,42.878745663911104,0.0],[-7.928260993212462,42.878765277564526,0.0],[-7.928748317062855,42.87875873968005,0.0],[-7.929094322025776,42.87883618846536,0.0],[-7.92960461229086,42.87897063419223,0.0],[-7.929996717721224,42.879058476537466,0.0],[-7.930420674383641,42.87914548069239,0.0],[-7.930548582226038,42.87911664694548,0.0],[-7.930792327970267,42.87913240492344,0.0],[-7.930996846407652,42.87915721535683,0.0],[-7.931228019297123,42.879326697438955,0.0],[-7.931560445576907,42.879635989665985,0.0],[-7.931704446673394,42.87977395579219,0.0],[-7.931800670921803,42.87992114201188,0.0],[-7.931894548237324,42.8799444437027,0.0],[-7.932027149945498,42.880052737891674,0.0],[-7.932601645588875,42.88022490218282,0.0],[-7.933156527578831,42.88036186248064,0.0],[-7.93388357385993,42.88061147555709,0.0],[-7.934355475008488,42.88071021437645,0.0],[-7.934850007295609,42.880736365914345,0.0],[-7.93520824983716,42.88073234260082,0.0],[-7.935606893151999,42.88070686161518,0.0],[-7.936238888651133,42.88062036037445,0.0],[-7.936763931065798,42.88047770038247,0.0],[-7.936976831406355,42.880426235497,0.0],[-7.937222421169281,42.88050603121519,0.0],[-7.937632966786623,42.8807351924479,0.0],[-7.938089780509472,42.88101950660348,0.0],[-7.938340064138174,42.88115696981549,0.0],[-7.938537206500769,42.88120407611132,0.0],[-7.938860077410937,42.881180103868246,0.0],[-7.939994987100363,42.88100726902485,0.0],[-7.940659504383803,42.880876678973436,0.0],[-7.94118169695139,42.88073854520917,0.0],[-7.94160682708025,42.88063980638981,0.0],[-7.941941767930985,42.880565375089645,0.0],[-7.94223714619875,42.88048172369599,0.0],[-7.942631095647812,42.88026748225093,0.0],[-7.942845672369004,42.88021484389901,0.0],[-7.943359818309546,42.88033889606595,0.0],[-7.943814285099507,42.88050418719649,0.0],[-7.944222483783961,42.88063025102019,0.0],[-7.944389116019011,42.88062371313572,0.0],[-7.944644931703806,42.880577109754086,0.0],[-7.944828663021326,42.88054207339883,0.0],[-7.944994121789933,42.88059655576944,0.0],[-7.945086993277073,42.880683057010174,0.0],[-7.945196460932494,42.88076972588897,0.0],[-7.945389077067376,42.88085304200649,0.0],[-7.945570293813944,42.8809648565948,0.0],[-7.945721838623286,42.88108488544822,0.0],[-7.945879250764847,42.881286051124334,0.0],[-7.946060467511416,42.88139384239912,0.0],[-7.946258280426264,42.88150565698743,0.0],[-7.946416698396206,42.88159718737006,0.0],[-7.946566734462977,42.881650663912296,0.0],[-7.946781981736422,42.88169810548425,0.0],[-7.947014328092337,42.8817368298769,0.0],[-7.947279866784811,42.88177186623216,0.0],[-7.947562839835883,42.88177454844117,0.0],[-7.947773393243552,42.881780583411455,0.0],[-7.947900462895632,42.88181846961379,0.0],[-7.948082853108645,42.881856858730316,0.0],[-7.94833229854703,42.88186322897673,0.0],[-7.948535475879908,42.881856858730316,0.0],[-7.948749382048846,42.88183808326721,0.0],[-7.948947865515948,42.88175342604518,0.0],[-7.949222624301911,42.88169592618942,0.0],[-7.94932421296835,42.88166357204318,0.0],[-7.949445750564337,42.88162065669894,0.0],[-7.949601821601391,42.88158528506756,0.0],[-7.949740961194039,42.8815539367497,0.0],[-7.94985244050622,42.881518229842186,0.0],[-7.949940115213395,42.881478164345026,0.0],[-7.950111608952284,42.88146240636706,0.0],[-7.951018530875445,42.8815314732492,0.0],[-7.95158414170146,42.88152912631631,0.0],[-7.952244803309441,42.88154253736138,0.0],[-7.95271385461092,42.88154136389494,0.0],[-7.952978890389204,42.881509345024824,0.0],[-7.953909449279309,42.88219951093197,0.0],[-7.954111956059933,42.88232959806919,0.0],[-7.955313920974732,42.88278289139271,0.0],[-7.955510895699263,42.882877606898546,0.0],[-7.955986317247153,42.88324037566781,0.0],[-7.956553269177676,42.88370154798031,0.0],[-7.956894580274821,42.88393456488848,0.0],[-7.957064062356949,42.884048726409674,0.0],[-7.95748382806778,42.8842631354928,0.0],[-7.958122864365578,42.88451844826341,0.0],[-7.958423607051373,42.88468139246106,0.0],[-7.958695013076067,42.88472279906273,0.0],[-7.958990056067706,42.884803768247366,0.0],[-7.959380988031626,42.88497107103467,0.0],[-7.959829587489367,42.88501348346472,0.0],[-7.960367873311043,42.885278183966875,0.0],[-7.960994169116021,42.88561061024666,0.0],[-7.961517367511988,42.88579601794481,0.0],[-7.962215580046177,42.88601730018854,0.0],[-7.962686307728291,42.88621176034212,0.0],[-7.96317832544446,42.886402532458305,0.0],[-7.963461801409722,42.88658056408167,0.0],[-7.96416437253356,42.886683493852615,0.0],[-7.964589335024357,42.88696814328432,0.0],[-7.964736521244049,42.88709672167897,0.0],[-7.964925616979599,42.88716545328498,0.0],[-7.964976746588946,42.887204848229885,0.0],[-7.965066265314818,42.88736728951335,0.0],[-7.965354099869728,42.887560576200485,0.0],[-7.965466249734164,42.88763551041484,0.0],[-7.965466249734164,42.88763551041484,0.0],[-7.965719215571881,42.88780499249697,0.0],[-7.965957596898079,42.88797028362751,0.0],[-7.966337967664004,42.888217717409134,0.0],[-7.966467887163163,42.88842240348458,0.0],[-7.966666370630265,42.888823729008436,0.0],[-7.966834511607886,42.88918700069189,0.0],[-7.966994103044272,42.88945974782109,0.0],[-7.967120837420226,42.88963308557868,0.0],[-7.967424262315035,42.88980357348919,0.0],[-7.967741265892983,42.889904491603374,0.0],[-7.968127671629191,42.889956794679165,0.0],[-7.968423049896956,42.889997363090515,0.0],[-7.968732342123986,42.890004739165306,0.0],[-7.969014141708613,42.89016533643007,0.0],[-7.969247661530972,42.89038125425577,0.0],[-7.969468943774701,42.890569008886814,0.0],[-7.969587296247483,42.89078073576093,0.0],[-7.969741690903902,42.890910655260086,0.0],[-7.971077430993319,42.891913801431656,0.0],[-7.971387226134539,42.892197109758854,0.0],[-7.971783187240363,42.89257379248738,0.0],[-7.97233572229743,42.892965227365494,0.0],[-7.972815670073033,42.89323562756181,0.0],[-7.973325792700053,42.89359202608466,0.0],[-7.973372228443623,42.89383979514241,0.0],[-7.973944880068303,42.8941323235631,0.0],[-7.974105644971133,42.89418864995241,0.0],[-7.974314521998167,42.89424128830433,0.0],[-7.974497079849244,42.894256208091974,0.0],[-7.974838893860579,42.894038781523705,0.0],[-7.975256647914648,42.8938059322536,0.0],[-7.975948322564364,42.89357693865895,0.0],[-7.976062148809433,42.89355078712106,0.0],[-7.976179160177708,42.8935606777668,0.0],[-7.976390551775694,42.893748600035906,0.0],[-7.976931352168322,42.89419535547495,0.0],[-7.97754155471921,42.89468318223953,0.0],[-7.977965846657753,42.89508383721113,0.0],[-7.978580743074418,42.895662020891905,0.0],[-7.978901267051697,42.89598975330591,0.0],[-7.979356739670039,42.89634682238102,0.0],[-7.979764267802239,42.896630465984344,0.0],[-7.980129551142455,42.89696691557765,0.0],[-7.980555016547442,42.89741752669215,0.0],[-7.980718463659287,42.897605281323195,0.0],[-7.981648519635201,42.89809562265873,0.0],[-7.981979604810477,42.89825286716223,0.0],[-7.982507161796093,42.89845922961831,0.0],[-7.982978895306588,42.89869291707873,0.0],[-7.984971608966589,42.89972875267267,0.0],[-7.986050862818957,42.90031984448433,0.0],[-7.986154295504094,42.90042880922556,0.0],[-7.986328303813935,42.900623101741076,0.0],[-7.986827529966832,42.9008929990232,0.0],[-7.987668234854937,42.90132433176041,0.0],[-7.989304549992085,42.90215715765953,0.0],[-7.989842165261507,42.90243744850159,0.0],[-7.990137375891209,42.90261212736368,0.0],[-7.9903001524508,42.90268739685416,0.0],[-7.990751937031746,42.90276534855366,0.0],[-7.990916892886162,42.90280792862177,0.0],[-7.991055697202683,42.9026991315186,0.0],[-7.991189304739237,42.90268773213029,0.0],[-7.991495579481125,42.90280105546117,0.0],[-7.991838902235032,42.90293684229255,0.0],[-7.992252297699452,42.90310783311725,0.0],[-7.992371991276741,42.90321495383978,0.0],[-7.992394119501114,42.90324579924345,0.0],[-7.992427982389927,42.9032794944942,0.0],[-7.992465365678072,42.90331721305847,0.0],[-7.992513310164214,42.90335409343243,0.0],[-7.992628645151854,42.90343506261706,0.0],[-7.992808185517788,42.90354335680604,0.0],[-7.993046063929797,42.90365802124143,0.0],[-7.993417549878359,42.903794813901186,0.0],[-7.993844356387854,42.903924733400345,0.0],[-7.994306534528733,42.904105111956596,0.0],[-7.994654886424542,42.904108967632055,0.0],[-7.994903158396483,42.90428465232253,0.0],[-7.995287384837866,42.90468530729413,0.0],[-7.995740007609129,42.90516894310713,0.0],[-7.996138986200095,42.90565978735685,0.0],[-7.996491361409426,42.906209137290716,0.0],[-7.996871396899224,42.90677357465029,0.0],[-7.996911462396384,42.907034419476986,0.0],[-7.997274566441775,42.90761411190033,0.0],[-7.997553683817387,42.90806204080582,0.0],[-7.997717130929232,42.90809020400047,0.0],[-7.997797932475806,42.90817687287927,0.0],[-7.99876805394888,42.90815759450197,0.0],[-7.998771909624339,42.908483147621155,0.0],[-7.998764198273421,42.90876427665353,0.0],[-7.998973410576582,42.908868212252855,0.0],[-7.99910081550479,42.908908277750015,0.0],[-7.999200727790594,42.90890106931329,0.0],[-7.999196872115136,42.90906535461545,0.0],[-7.999467607587576,42.90914246812463,0.0],[-7.9997150413692,42.90924020111561,0.0],[-8.000020813196898,42.90927305817604,0.0],[-8.000337313860655,42.909242548048496,0.0],[-8.000587932765484,42.90923114866018,0.0],[-8.00082229077816,42.90920918807387,0.0],[-8.000959418714046,42.90922997519374,0.0],[-8.001078609377146,42.90927590802312,0.0],[-8.001345153898,42.909269370138645,0.0],[-8.001919649541378,42.90905697271228,0.0],[-8.002204298973083,42.90905077010393,0.0],[-8.00235316157341,42.90910055860877,0.0],[-8.00261551514268,42.909215558320284,0.0],[-8.00281634554267,42.909436505287886,0.0],[-8.003144580870867,42.90969600901008,0.0],[-8.003431074321268,42.90989264845848,0.0],[-8.00386156886816,42.91015299037099,0.0],[-8.004572354257107,42.910465970635414,0.0],[-8.005233015865088,42.91071591898799,0.0],[-8.006058130413294,42.91105857118964,0.0],[-8.006614185869694,42.91124565526843,0.0],[-8.00687737762928,42.91132226586342,0.0],[-8.008280508220196,42.911790143698454,0.0],[-8.00845904275775,42.91188267990947,0.0],[-8.008674122393131,42.911944538354874,0.0],[-8.009461183100939,42.91201829910278,0.0],[-8.009676095098257,42.91210597380996,0.0],[-8.01110789179802,42.91268818080425,0.0],[-8.011175785213709,42.91278189048171,0.0],[-8.01148222759366,42.91326116770506,0.0],[-8.012457881122828,42.91342344135046,0.0],[-8.012426868081093,42.913558054715395,0.0],[-8.012853842228651,42.91364036500454,0.0],[-8.013209905475378,42.91371177881956,0.0],[-8.013443257659674,42.91375603526831,0.0],[-8.014496024698019,42.91391948238015,0.0],[-8.014839179813862,42.914024256169796,0.0]]}},{"type":"Feature","properties":{"stage":3,"origin":"Palas de Rei","destination":"Arzúa","source_file":"ES01c31a-Melide-Arzua.kml","source":"FEAACS / CNIG-IGN","license":"CC-BY 4.0"},"geometry":{"type":"LineString","coordinates":[[-8.014839179813862,42.914024256169796,455.0],[-8.014844879508018,42.91402593255043,455.0],[-8.01488310098648,42.914032470434904,456.0],[-8.015079740434885,42.914382833987474,456.0],[-8.016130831092596,42.91426045820117,456.0],[-8.016638942062855,42.9141934029758,456.0],[-8.017221987247467,42.914098519831896,454.0],[-8.017559107393026,42.914061807096004,453.0],[-8.018091358244419,42.9139618948102,453.0],[-8.01836360245943,42.9139100946486,453.0],[-8.019437491893768,42.91367791593075,451.0],[-8.019975610077381,42.91339812800288,449.0],[-8.020589835941792,42.913120184093714,445.0],[-8.021239265799522,42.91283821687102,440.0],[-8.021758776158094,42.912629172205925,436.0],[-8.022091202437878,42.91250444948673,433.0],[-8.022176194936037,42.91250864043832,433.0],[-8.02221005782485,42.91241828352213,432.0],[-8.022411223500967,42.91240252554417,430.0],[-8.024387005716562,42.911150101572275,424.0],[-8.024584986269474,42.91116736829281,423.0],[-8.024852871894836,42.911227717995644,422.0],[-8.025310356169939,42.91139770299196,420.0],[-8.025719560682774,42.91152510792017,419.0],[-8.026132620871067,42.91161647066474,418.0],[-8.026463873684406,42.911643125116825,417.0],[-8.02689604461193,42.91184110566974,417.0],[-8.027310613542795,42.91202114894986,417.0],[-8.027920816093683,42.91200991719961,418.0],[-8.02853973582387,42.91207730770111,419.0],[-8.029127977788448,42.91218711063266,421.0],[-8.030051998794079,42.91218711063266,423.0],[-8.030647281557322,42.912177219986916,423.0],[-8.031079955399036,42.91212676092982,422.0],[-8.031353875994682,42.91207730770111,422.0],[-8.031676579266787,42.9120209813118,421.0],[-8.031929042190313,42.91201243177056,421.0],[-8.032204806804655,42.91203187778592,423.0],[-8.032390717417002,42.91207378730178,424.0],[-8.032710067927837,42.91201192885637,425.0],[-8.032962530851364,42.91200589388609,428.0],[-8.033872805535793,42.912054006010294,433.0],[-8.034280836582184,42.91213799268007,434.0],[-8.034784421324728,42.912255842238665,435.0],[-8.035992588847876,42.91257569566369,430.0],[-8.03641403093934,42.9125577583909,428.0],[-8.036956675350666,42.91259530931711,427.0],[-8.037159517407417,42.91267091408372,427.0],[-8.037523627281187,42.91277216747403,428.0],[-8.037616666406393,42.91284743696451,429.0],[-8.03905751556158,42.913428638130426,436.0],[-8.0393829010427,42.913673389703035,435.0],[-8.03942397236824,42.913829293102026,435.0],[-8.04042711853981,42.9145990870893,424.0],[-8.041371926665306,42.91532713919878,420.0],[-8.041990008205175,42.91543040424585,424.0],[-8.042237777262926,42.915839944034815,428.0],[-8.042347580194473,42.91642466560006,426.0],[-8.042753599584103,42.916377894580364,429.0],[-8.043022826313972,42.91635224595666,431.0],[-8.044174164533615,42.916403878480196,438.0],[-8.04489266127348,42.91641930118203,442.0],[-8.0452524125576,42.91630212217569,444.0],[-8.045960012823343,42.916050497442484,444.0],[-8.04639084264636,42.91591739282012,445.0],[-8.046417161822319,42.91595879942179,446.0],[-8.046480193734169,42.915996350347996,446.0],[-8.046808764338493,42.916131634265184,448.0],[-8.04706759750843,42.9163433611393,450.0],[-8.047312181442974,42.9164813272655,451.0],[-8.047863710671663,42.91671250015497,454.0],[-8.04811768233776,42.91674301028252,455.0],[-8.048393446952105,42.91673630475998,456.0],[-8.048778008669615,42.9165711812675,455.0],[-8.048891834914684,42.91659414768219,455.0],[-8.049013707786798,42.916750218719244,456.0],[-8.049205988645554,42.91692841798067,456.0],[-8.04959423840046,42.91721088811755,456.0],[-8.04993337020278,42.91740484535694,456.0],[-8.051675464957952,42.91762528941035,465.0],[-8.05172810330987,42.917573656886816,465.0],[-8.051794990897179,42.91725464165211,464.0],[-8.051987271755934,42.917053643614054,464.0],[-8.052237220108509,42.916905116289854,463.0],[-8.052425980567932,42.916844096034765,463.0],[-8.052605856209993,42.91681174188852,464.0],[-8.052931241691113,42.91673295199871,466.0],[-8.053119666874409,42.91667612269521,467.0],[-8.053266182541847,42.916593477129936,468.0],[-8.053440023213623,42.91649255901575,468.0],[-8.053631130605936,42.91639465838671,468.0],[-8.053935058414936,42.916272450238466,468.0],[-8.054414503276348,42.91606491431594,467.0],[-8.054779451340435,42.91593650355935,466.0],[-8.055225871503353,42.91577707976103,465.0],[-8.055709674954414,42.91566576808691,463.0],[-8.056105971336365,42.91560139507055,461.0],[-8.056452814489603,42.915588319301605,460.0],[-8.056662194430828,42.9155420511961,460.0],[-8.056693878024817,42.9155351780355,459.0],[-8.057403657585382,42.91538245975971,456.0],[-8.057903554290533,42.915388494729996,456.0],[-8.058860264718533,42.9154521971941,457.0],[-8.059406764805315,42.91542151942849,459.0],[-8.05977389216423,42.91544381529093,460.0],[-8.060337491333485,42.91556669399142,459.0],[-8.060834538191555,42.91570767760277,457.0],[-8.061410039663315,42.915963996201754,452.0],[-8.06182611733675,42.91612224653363,449.0],[-8.062082435935736,42.916195169091225,447.0],[-8.062255270779133,42.916233725845814,446.0],[-8.063558656722307,42.91649540886283,434.0],[-8.063944559544325,42.91663069278002,427.0],[-8.064071293920279,42.91680000722408,424.0],[-8.06409677490592,42.91690830141306,423.0],[-8.06414321064949,42.91701911017299,422.0],[-8.064414784312248,42.917043417692184,420.0],[-8.06488836184144,42.91692020371556,418.0],[-8.065235037356615,42.91681610047817,418.0],[-8.065561261028051,42.91667327284813,419.0],[-8.065998461097479,42.91658442467451,419.0],[-8.066277746111155,42.916504461318254,419.0],[-8.066575303673744,42.916449308395386,419.0],[-8.066977970302103,42.91640404611826,420.0],[-8.067259769886732,42.91628737002611,421.0],[-8.068193849176168,42.91617589071393,422.0],[-8.068922236561775,42.91605385020375,424.0],[-8.069386929273605,42.915894258767366,426.0],[-8.069833014160395,42.915784791111946,426.0],[-8.070280440151691,42.915747072547674,426.0],[-8.07060381397605,42.91579099372029,426.0],[-8.07105626910925,42.91582502424717,426.0],[-8.07150101289153,42.91578311473131,424.0],[-8.071740064769983,42.91580306366086,423.0],[-8.071992360055447,42.915916219353676,422.0],[-8.072252701967955,42.91600573807955,420.0],[-8.072525281459093,42.915937174111605,419.0],[-8.07280423119664,42.915830723941326,418.0],[-8.073028028011322,42.91572142392397,416.0],[-8.073273617774248,42.915597539395094,415.0],[-8.073495402932167,42.915520928800106,414.0],[-8.073706794530153,42.91557725518942,413.0],[-8.07388599961996,42.91566727682948,412.0],[-8.074110634624958,42.91584128513932,410.0],[-8.074296042323112,42.91592929512262,408.0],[-8.074515480548143,42.91596919298172,407.0],[-8.074797112494707,42.916000206023455,405.0],[-8.075275383889675,42.91600238531828,403.0],[-8.075774442404509,42.916007079184055,400.0],[-8.076228071004152,42.91605770587921,398.0],[-8.076598551124334,42.91610565036535,395.0],[-8.077182099223135,42.91610799729824,394.0],[-8.07729508727789,42.91610665619373,394.0],[-8.07729508727789,42.91610665619373,394.0],[-8.07742852717638,42.91610514745116,394.0],[-8.077960778027771,42.91605468839407,394.0],[-8.07802028954029,42.91618041694164,393.0],[-8.078037220984697,42.91635962203145,392.0],[-8.078103940933943,42.91644209995866,391.0],[-8.078402001410723,42.91657319292426,390.0],[-8.07879913598299,42.91672071442008,388.0],[-8.078864347189665,42.91674921289086,387.0],[-8.078982699662445,42.91686253622174,385.0],[-8.079024273902178,42.91700318455696,382.0],[-8.07904539629817,42.91741222143173,375.0],[-8.079049251973627,42.91752453893423,373.0],[-8.079123683273792,42.91764942929149,370.0],[-8.079371452331541,42.917879931628704,366.0],[-8.079522494226694,42.91795218363404,365.0],[-8.079904038459063,42.918024603277445,363.0],[-8.080547433346508,42.918163407593966,359.0],[-8.080721274018288,42.91822090744972,357.0],[-8.080954626202583,42.918310929089785,355.0],[-8.081172555685043,42.91833674535155,353.0],[-8.081423677504063,42.91833071038127,352.0],[-8.081561140716074,42.91832668706775,352.0],[-8.081686198711395,42.918316293507814,352.0],[-8.081819470971823,42.91831310838461,352.0],[-8.081805557012556,42.91844638064504,350.0],[-8.081886023283005,42.91842341423035,350.0],[-8.08209540322423,42.91832501068711,351.0],[-8.082270920276642,42.91831646114588,351.0],[-8.082811888307331,42.918442357331514,349.0],[-8.083067536354063,42.91844855993986,349.0],[-8.08325495570898,42.91842710226774,349.0],[-8.083888962864876,42.91810171678662,346.0],[-8.084000777453184,42.91806282475591,345.0],[-8.084083087742329,42.91804639622569,344.0],[-8.084184508770704,42.91803549975157,343.0],[-8.084271177649496,42.91803751140833,343.0],[-8.084630090743303,42.9180752299726,341.0],[-8.084922786802053,42.918092496693134,339.0],[-8.085141386836767,42.91812585666776,339.0],[-8.085350599139929,42.91817681863904,339.0],[-8.085644468665121,42.918284609913826,340.0],[-8.08584328740835,42.91838552802801,342.0],[-8.086035903543234,42.918470688164234,344.0],[-8.08619314804673,42.91852517053485,345.0],[-8.086436558514833,42.918551322072744,346.0],[-8.086725566536188,42.918602116405964,348.0],[-8.087048102170227,42.918619215488434,350.0],[-8.087317496538162,42.91865995153785,352.0],[-8.08760667219758,42.91871074587107,355.0],[-8.08783885091543,42.91868392378092,356.0],[-8.0882946588099,42.91851779446006,358.0],[-8.088715597987173,42.91855987161398,361.0],[-8.088973090052605,42.91851343587041,362.0],[-8.089177440851927,42.918510250747204,363.0],[-8.089271821081638,42.918585017323494,365.0],[-8.08922069147229,42.91870420798659,367.0],[-8.089106697589159,42.91884368285537,368.0],[-8.088961020112038,42.918890956789255,368.0],[-8.088854067027569,42.91899170726538,369.0],[-8.088891617953777,42.919127494096756,371.0],[-8.089088089764118,42.91920645162463,374.0],[-8.089455552399158,42.91931105777621,380.0],[-8.089754953980446,42.91937308385968,384.0],[-8.090253174304962,42.91946494951844,389.0],[-8.09062834829092,42.91949210688472,391.0],[-8.090963624417782,42.919528651982546,392.0],[-8.091150373220444,42.91960895061493,393.0],[-8.091329243034124,42.91971540078521,394.0],[-8.091707602143288,42.92000876739621,396.0],[-8.091948665678501,42.92018964886665,397.0],[-8.092249073088169,42.920375894755125,398.0],[-8.092469684779644,42.920534145087004,398.0],[-8.092565070837736,42.92071586474776,399.0],[-8.092689123004673,42.920925579965115,401.0],[-8.092768918722866,42.92111350223422,401.0],[-8.092889618128538,42.92136596515775,403.0],[-8.092993889003992,42.92160836979747,403.0],[-8.093080557882786,42.92179226875305,404.0],[-8.093245849013329,42.92208144441247,405.0],[-8.093298319727182,42.922273725271225,406.0],[-8.093446344137192,42.92250791564584,406.0],[-8.093680199235678,42.92272115126252,407.0],[-8.093847166746855,42.92292734608054,407.0],[-8.094090577214956,42.92322440072894,408.0],[-8.094350416213274,42.923557832837105,410.0],[-8.094516713172197,42.923735696822405,412.0],[-8.094847965985537,42.92397340759635,413.0],[-8.095148708671331,42.92415160685778,414.0],[-8.095554392784832,42.92430181056261,417.0],[-8.096010871231554,42.924416474998,418.0],[-8.096330557018518,42.92453180998564,419.0],[-8.096631299704313,42.92462619021535,420.0],[-8.0970274284482,42.924734484404325,420.0],[-8.097322974354029,42.92476935312152,419.0],[-8.097866456955671,42.92458662763238,418.0],[-8.09828856959939,42.92454807087779,417.0],[-8.09864480048418,42.92458662763238,415.0],[-8.098821491003036,42.92465737089515,414.0],[-8.099126257002354,42.92472677305341,412.0],[-8.099789265543222,42.924656700342894,406.0],[-8.100514970719814,42.92461747303605,401.0],[-8.101235646754503,42.92463490739465,397.0],[-8.101656083017588,42.92467111721635,396.0],[-8.101979289203882,42.92474839836359,394.0],[-8.102228064090014,42.92482567951083,393.0],[-8.10268135741353,42.924996837973595,391.0],[-8.10317287221551,42.92514016851783,390.0],[-8.103272952139378,42.92515827342868,390.0],[-8.103389628231525,42.92518995702267,389.0],[-8.103553242981434,42.92525550350547,387.0],[-8.103836216032505,42.92547142133117,384.0],[-8.104035705327988,42.925741989165545,382.0],[-8.104135282337666,42.92589973658323,381.0],[-8.104203175753355,42.92613208293915,382.0],[-8.104248438030481,42.92652100324631,384.0],[-8.104417752474546,42.926683109253645,384.0],[-8.107430376112461,42.92754041031003,392.0],[-8.109072893857954,42.928000409156084,399.0],[-8.109529875218868,42.92813133448362,402.0],[-8.109762053936718,42.92815430089831,404.0],[-8.110077045857906,42.9281584918499,406.0],[-8.110308051109312,42.92814373970032,410.0],[-8.11060493811965,42.928136363625526,414.0],[-8.110926635563374,42.928098142147064,418.0],[-8.111291583627462,42.9279375448823,423.0],[-8.111667428165674,42.92770905420184,427.0],[-8.111905809491873,42.92754074558616,428.0],[-8.112203869968653,42.92734561488032,429.0],[-8.11257116496563,42.92708896100521,431.0],[-8.112644422799349,42.92708728462458,431.0],[-8.11273142695427,42.9272379912436,432.0],[-8.112840726971626,42.92733723297715,432.0],[-8.1130182556808,42.92750269174576,433.0],[-8.112999983131886,42.92785104364157,433.0],[-8.113134261220694,42.92793368920684,432.0],[-8.113436009734869,42.92827349156141,430.0],[-8.11360901221633,42.92844280600548,428.0],[-8.113904390484095,42.92858513072133,424.0],[-8.114102371037006,42.9286558739841,422.0],[-8.114771246910095,42.92877120897174,415.0],[-8.115258235484362,42.92885335162282,410.0],[-8.115714211016893,42.92896332219243,405.0],[-8.117877412587404,42.929354924708605,398.0],[-8.118909895420074,42.9295089840889,394.0],[-8.119237963110209,42.92950579896569,393.0],[-8.11951708048582,42.929491717368364,393.0],[-8.119766525924206,42.92951753363013,393.0],[-8.120264410972595,42.92938308790326,393.0],[-8.120515868067741,42.92958760634065,395.0],[-8.120736982673407,42.92966790497303,396.0],[-8.12092138454318,42.92970025911927,396.0],[-8.12125414609909,42.929783910512924,394.0],[-8.121665865182877,42.92990796267986,393.0],[-8.122063670307398,42.929965294897556,391.0],[-8.122536074370146,42.93002815917134,389.0],[-8.122800774872303,42.930150367319584,385.0],[-8.122969083487988,42.93015154078603,383.0],[-8.123580794781446,42.93012170121074,375.0],[-8.124057557433844,42.93013025075197,370.0],[-8.124331310391426,42.9301512055099,367.0],[-8.124764654785395,42.930226642638445,360.0],[-8.125092219561338,42.93028028681874,355.0],[-8.125460520386696,42.93042428791523,350.0],[-8.125872407108545,42.93066719546914,346.0],[-8.126181196421385,42.930810023099184,343.0],[-8.126453272998331,42.9309007152915,340.0],[-8.126834817230701,42.931019235402346,335.0],[-8.1274875998497,42.93108997866511,325.0],[-8.128640111535788,42.93096676468849,315.0],[-8.129182923585176,42.93096341192722,310.0],[-8.129472099244595,42.93105510994792,310.0],[-8.129683826118708,42.93103449046612,309.0],[-8.129970990121365,42.93095167726278,307.0],[-8.130142483860254,42.930870708078146,307.0],[-8.130367621779442,42.93076526373625,306.0],[-8.130412548780441,42.93074632063508,306.0],[-8.130412548780441,42.93074632063508,306.0],[-8.13065143302083,42.930645905435085,306.0],[-8.131108917295933,42.93053425848484,307.0],[-8.131400272250175,42.930470891296864,308.0],[-8.131856583058834,42.93048832565546,310.0],[-8.132429737597702,42.930581867694855,314.0],[-8.133692219853401,42.93083097785711,316.0],[-8.13440652564168,42.93095150962472,319.0],[-8.134638704359531,42.93096944689751,321.0],[-8.134925533086061,42.930721174925566,328.0],[-8.135200794786215,42.93058153241873,332.0],[-8.135211858898401,42.930431328713894,334.0],[-8.13526265323162,42.930031176656485,338.0],[-8.135270364582539,42.929775193333626,338.0],[-8.135454095900059,42.92939767241478,341.0],[-8.135596420615911,42.92918913066387,343.0],[-8.135721310973167,42.92922232300043,344.0],[-8.135927841067314,42.92929172515869,346.0],[-8.136073015630245,42.92911268770695,347.0],[-8.136310055851936,42.92886206880212,347.0],[-8.136392030864952,42.92885536327958,348.0],[-8.136427570134401,42.92896432802081,349.0],[-8.136244844645262,42.92947696521878,348.0],[-8.136171251535416,42.92998105287552,347.0],[-8.136170748621225,42.93021557852626,345.0],[-8.136240988969803,42.93045345693827,343.0],[-8.136453554034233,42.93068362399936,342.0],[-8.13695177435875,42.93084170669317,343.0],[-8.137624002993107,42.93092384934425,346.0],[-8.138065729290245,42.93094212189317,347.0],[-8.138523548841476,42.9308956861496,349.0],[-8.139191083610058,42.93083164840937,353.0],[-8.139852918684483,42.93075319379568,355.0],[-8.140206634998322,42.93066954240203,357.0],[-8.140504360198975,42.93053476139903,359.0],[-8.140720780938864,42.93042026460171,360.0],[-8.14110467210412,42.93020870536566,364.0],[-8.141507674008608,42.930036038160324,368.0],[-8.141800370067358,42.92997568845749,370.0],[-8.14227931201458,42.929922714829445,375.0],[-8.142656497657299,42.92991064488888,379.0],[-8.143559899181128,42.92992925271392,384.0],[-8.144557010382414,42.92992774397135,385.0],[-8.146129958331583,42.929957415908575,387.0],[-8.147361427545547,42.92995993047953,389.0],[-8.148280922323465,42.929988261312246,389.0],[-8.149753622710705,42.93002799153328,389.0],[-8.150976710021496,42.930065877735615,389.0],[-8.151995781809092,42.930020950734615,395.0],[-8.152285292744637,42.92999530211091,396.0],[-8.152713440358639,42.929933946579695,397.0],[-8.153201099485157,42.929824981838465,398.0],[-8.154044318944216,42.92957704514265,399.0],[-8.1550882011652,42.929192651063204,400.0],[-8.156767264008522,42.928571216762066,398.0],[-8.159003052860498,42.92775649577379,399.0],[-8.160311300307512,42.9272710159421,396.0],[-8.160340134054422,42.92724033817649,396.0],[-8.160538785159588,42.92718669399619,395.0],[-8.160542640835047,42.927113603800535,395.0],[-8.16182792186737,42.92660666629672,392.0],[-8.162289261817932,42.92644891887903,392.0],[-8.162615820765495,42.926361579447985,391.0],[-8.162795193493366,42.92633207514882,391.0]]}}]}
