{"type":"FeatureCollection","features":[{"type":"Feature","properties":{"stage":4,"origin":"Arzúa","destination":"O Pedrouzo","source_file":"ES01c32a-Arzua-ArcaOPino.kml","source":"FEAACS / CNIG-IGN","license":"CC-BY 4.0"},"geometry":{"type":"LineString","coordinates":[[-8.162795193493366,42.92633207514882,0.0],[-8.16307732835412,42.92624557390809,0.0],[-8.163489717990158,42.92622897773981,0.0],[-8.16393194720149,42.92625127360225,0.0],[-8.164318352937698,42.92624641209841,0.0],[-8.164708949625492,42.926254626363516,0.0],[-8.164938446134329,42.92633878067136,0.0],[-8.165162075310946,42.92630508542061,0.0],[-8.165445886552334,42.9263019002974,0.0],[-8.165857940912247,42.926438357681036,0.0],[-8.16619774326682,42.92656810954213,0.0],[-8.166663441807032,42.926750499755144,0.0],[-8.166959658265114,42.92679039761424,0.0],[-8.16730935126543,42.92679291218519,0.0],[-8.167855851352215,42.926780842244625,0.0],[-8.168183080852032,42.92682325467467,0.0],[-8.168826140463352,42.92694026604295,0.0],[-8.169501889497042,42.92707370594144,0.0],[-8.169929198920727,42.92714646086097,0.0],[-8.170156683772802,42.927134558558464,0.0],[-8.170491121709347,42.92706264182925,0.0],[-8.170944415032864,42.92702006176114,0.0],[-8.17131120711565,42.927022743970156,0.0],[-8.17169040441513,42.927060797810555,0.0],[-8.172190636396408,42.927178144454956,0.0],[-8.172601349651814,42.92729230597615,0.0],[-8.173087500035763,42.927424404770136,0.0],[-8.173469547182322,42.92751358821988,0.0],[-8.17369770258665,42.92740764096379,0.0],[-8.173947483301163,42.927272859960794,0.0],[-8.174049742519855,42.927129194140434,0.0],[-8.174132890999317,42.92681319639087,0.0],[-8.17422827705741,42.9265540279448,0.0],[-8.1742649897933,42.926447074860334,0.0],[-8.174427431076765,42.92634850367904,0.0],[-8.174654245376585,42.926255632191896,0.0],[-8.174921460449696,42.92615907266736,0.0],[-8.175283893942831,42.9260085336864,0.0],[-8.17554758861661,42.92589973658323,0.0],[-8.175813127309082,42.92581222951412,0.0],[-8.17631520330906,42.92566705495119,0.0],[-8.176872096955776,42.92549405246973,0.0],[-8.177324552088974,42.92533362284303,0.0],[-8.17784808576107,42.9252695851028,0.0],[-8.178640678524971,42.92524058371782,0.0],[-8.179158009588718,42.92528349906206,0.0],[-8.17953821271658,42.92537670582533,0.0],[-8.179850187152624,42.92550092563033,0.0],[-8.180107176303864,42.92559748515487,0.0],[-8.180266935378313,42.92561676353216,0.0],[-8.18037187680602,42.92558139190078,0.0],[-8.18044412881136,42.92553562670946,0.0],[-8.180459551513195,42.92529623955488,0.0],[-8.180482685565948,42.925107814371586,0.0],[-8.18050917237997,42.92496347799897,0.0],[-8.180569857358932,42.924872785806656,0.0],[-8.18071000277996,42.92480941861868,0.0],[-8.181009069085121,42.924747224897146,0.0],[-8.181280139833689,42.924720402807,0.0],[-8.181716334074736,42.92463691905141,0.0],[-8.182065859436989,42.92458511888981,0.0],[-8.182449415326118,42.92453180998564,0.0],[-8.182627279311419,42.92454672977328,0.0],[-8.182763904333115,42.9245356656611,0.0],[-8.182912599295378,42.92448252439499,0.0],[-8.183132205158472,42.924352772533894,0.0],[-8.183476030826569,42.92423810809851,0.0],[-8.18379320204258,42.924216985702515,0.0],[-8.184237275272608,42.924204748123884,0.0],[-8.184385802596807,42.92415915057063,0.0],[-8.184641283005474,42.9240089468658,0.0],[-8.184757959097624,42.923851534724236,0.0],[-8.18483842536807,42.92360493913293,0.0],[-8.184945210814476,42.92324451729655,0.0],[-8.1850079074502,42.92303346097469,0.0],[-8.185191974043846,42.92278300970793,0.0],[-8.185365814715624,42.92268879711628,0.0],[-8.185608219355345,42.92259760200977,0.0],[-8.185742665082216,42.92260833084583,0.0],[-8.186128232628107,42.92268896475434,0.0],[-8.186334930360317,42.922679744660854,0.0],[-8.186732232570648,42.922605480998755,0.0],[-8.186971116811037,42.92257798835635,0.0],[-8.187048565596342,42.922621071338654,0.0],[-8.18712417036295,42.922710590064526,0.0],[-8.187403287738562,42.922766245901585,0.0],[-8.187821879982948,42.922795582562685,0.0],[-8.188062105327845,42.92307687923312,0.0],[-8.188129495829344,42.92314661666751,0.0],[-8.188325632363558,42.923177629709244,0.0],[-8.188427053391933,42.923086266964674,0.0],[-8.188587483018637,42.923008147627115,0.0],[-8.188614808022974,42.92304066941142,0.0],[-8.189657684415579,42.92535977438092,0.0],[-8.189937137067316,42.925987243652344,0.0],[-8.19002129137516,42.92606519535184,0.0],[-8.190189432352781,42.92613158002496,0.0],[-8.190374840050936,42.926142644137144,0.0],[-8.192080724984407,42.92614113539457,0.0],[-8.192841298878191,42.926148511469364,0.0],[-8.193070124834774,42.92617969214916,0.0],[-8.193249329924583,42.92619997635484,0.0],[-8.193653337657452,42.926317658275366,0.0],[-8.194014597684143,42.92643617838621,0.0],[-8.194472920149565,42.92653592303395,0.0],[-8.19479662925005,42.92657749727368,0.0],[-8.194941636174917,42.92663466185331,0.0],[-8.195007350295782,42.92668327689171,0.0],[-8.195208180695772,42.92667422443628,0.0],[-8.195553850382566,42.92661018669605,0.0],[-8.195789884775875,42.92660415172577,0.0],[-8.19591511040926,42.92660415172577,0.0],[-8.19609649479389,42.92655184864998,0.0],[-8.196216188371181,42.92648596689105,0.0],[-8.196408469229937,42.92637046426535,0.0],[-8.19662807509303,42.9262450709939,0.0],[-8.196908198297024,42.92610106989741,0.0],[-8.197260573506355,42.925970479846,0.0],[-8.19755595177412,42.92587710544467,0.0],[-8.19778410717845,42.92584424838424,0.0],[-8.197963312268257,42.92584290727973,0.0],[-8.198213260620832,42.926082126796246,0.0],[-8.198635373264551,42.92650641873479,0.0],[-8.19965947419405,42.92723212391138,0.0],[-8.20099739357829,42.92768374085426,0.0],[-8.201314229518175,42.92765524238348,0.0],[-8.201567865908144,42.927710227668285,0.0],[-8.201830890029669,42.92779807001352,0.0],[-8.20213045924902,42.92783696204424,0.0],[-8.202562294900417,42.92779605835676,0.0],[-8.202969823032618,42.92771274223924,0.0],[-8.203347846865652,42.92762657627463,0.0],[-8.20369753986597,42.92756924405694,0.0],[-8.20407958701253,42.92753806337714,0.0],[-8.204489462077618,42.927475702017546,0.0],[-8.204856924712656,42.927443347871304,0.0],[-8.205181136727333,42.92743815109134,0.0],[-8.20553569123149,42.92746027931571,0.0],[-8.20644160732627,42.92750922963023,0.0],[-8.207713477313519,42.92760914191604,0.0],[-8.20787189528346,42.92759941890836,0.0],[-8.208121508359909,42.92766496539116,0.0],[-8.208581171929836,42.92787350714207,0.0],[-8.209098000079393,42.928112894296646,0.0],[-8.209691438823938,42.92835295200348,0.0],[-8.210384622216225,42.928559985011816,0.0],[-8.210842441767454,42.92863039299846,0.0],[-8.211096078157423,42.92863927781582,0.0],[-8.21144225075841,42.92866241186857,0.0],[-8.21217181161046,42.928718235343695,0.0],[-8.212959207594395,42.928734831511974,0.0],[-8.213578127324581,42.92877288535237,0.0],[-8.21374962106347,42.92878143489361,0.0],[-8.214134350419044,42.92870867997408,0.0],[-8.21440927684307,42.92859083041549,0.0],[-8.21490079164505,42.92833719402552,0.0],[-8.215201366692781,42.92823577299714,0.0],[-8.215527758002281,42.928095292299986,0.0],[-8.21605296805501,42.92785070836544,0.0],[-8.216217253357172,42.927790861576796,0.0],[-8.216634169220924,42.927641328424215,0.0],[-8.217277899384499,42.92739590629935,0.0],[-8.217611834406853,42.92723631486297,0.0],[-8.217937722802162,42.92711645364761,0.0],[-8.217976782470942,42.92705342173576,0.0],[-8.218057919293642,42.926993910223246,0.0],[-8.219718877226114,42.926524858921766,0.0],[-8.220756221562622,42.92626032605767,0.0],[-8.221498187631369,42.92604424059391,0.0],[-8.222239650785923,42.92586252093315,0.0],[-8.222649525851011,42.92589386925101,0.0],[-8.222913052886724,42.92590627446771,0.0],[-8.223417475819588,42.92574031278491,0.0],[-8.223893232643604,42.925568986684084,0.0],[-8.2241041213274,42.92549204081297,0.0],[-8.224478457123041,42.92530193924904,0.0],[-8.224800154566765,42.92516179382801,0.0],[-8.225222937762737,42.92500555515289,0.0],[-8.225808329880238,42.92479885742068,0.0],[-8.22614561766386,42.92463893070817,0.0],[-8.22647787630558,42.924450840801,0.0],[-8.226920273154972,42.92400190606713,0.0],[-8.227753434330223,42.92357861995697,0.0],[-8.228212092071772,42.92339790612459,0.0],[-8.228258360177279,42.92327770963311,0.0],[-8.228574022650719,42.92308710515499,0.0],[-8.228775523602962,42.9229848459363,0.0],[-8.229097221046686,42.922778986394405,0.0],[-8.229352701455355,42.92269852012396,0.0],[-8.230107072740793,42.92244454845786,0.0],[-8.230402953922749,42.922342624515295,0.0],[-8.230759017169476,42.92220516130328,0.0],[-8.231094628572462,42.92211581021547,0.0],[-8.231553453952074,42.92199628427625,0.0],[-8.231803569942713,42.92188245803118,0.0],[-8.231918569654226,42.921826634556055,0.0],[-8.23246406391263,42.92156629264355,0.0],[-8.232898749411106,42.92137501761317,0.0],[-8.233350533992052,42.92116530239582,0.0],[-8.23373844847083,42.92095860466361,0.0],[-8.234106749296188,42.92085316032171,0.0],[-8.234506901353598,42.92082583531737,0.0],[-8.234817869961262,42.92074402794242,0.0],[-8.23535917326808,42.920501958578825,0.0],[-8.235740382224321,42.920383773744106,0.0],[-8.235978092998266,42.92037891224027,0.0],[-8.236217983067036,42.92040020227432,0.0],[-8.236548732966185,42.92039701715112,0.0],[-8.236967492848635,42.920398861169815,0.0],[-8.237196654081345,42.92034035548568,0.0],[-8.237320538610218,42.92021546512842,0.0],[-8.237478286027908,42.91999468579888,0.0],[-8.237702585756779,42.91978815570474,0.0],[-8.239237815141678,42.91915347799659,0.0],[-8.239812310785055,42.918869499117136,0.0],[-8.23998212814331,42.91869264096022,0.0],[-8.24019217863679,42.91848912835121,0.0],[-8.240323103964329,42.91837848722935,0.0],[-8.240377753973007,42.918264493346214,0.0],[-8.240557964891195,42.918127197772264,0.0],[-8.240942694246767,42.91801253333688,0.0],[-8.241295237094162,42.91786501184106,0.0],[-8.241605535149574,42.917715311050415,0.0],[-8.241714835166931,42.917739786207676,0.0],[-8.241770658642054,42.91771614924073,0.0],[-8.241841569542885,42.91774246841669,0.0],[-8.241956736892462,42.91779460385442,0.0],[-8.242035191506147,42.917829137295485,0.0],[-8.242153208702803,42.91785730049014,0.0],[-8.242232836782932,42.91786199435592,0.0],[-8.242586385458708,42.91796961799264,0.0],[-8.24288109317422,42.9180665127933,0.0],[-8.243000283837318,42.918135076761246,0.0],[-8.243141938000917,42.91822224855423,0.0],[-8.243267498910427,42.91822895407677,0.0],[-8.243358694016933,42.918169777840376,0.0],[-8.243406135588884,42.91806450113654,0.0],[-8.243434969335794,42.91797950863838,0.0],[-8.243491631001234,42.917903903871775,0.0],[-8.243597745895386,42.9179216735065,0.0],[-8.243694975972176,42.91794816032052,0.0],[-8.24408607557416,42.917966935783625,0.0],[-8.2442532107234,42.9179666005075,0.0],[-8.24435530230403,42.91794866323471,0.0],[-8.244428727775812,42.91791915893555,0.0],[-8.244526628404856,42.917887810617685,0.0],[-8.244626875966787,42.91785713285208,0.0],[-8.244766183197498,42.91780650615692,0.0],[-8.245039768517017,42.917809356004,0.0],[-8.245392311364412,42.9177781753242,0.0],[-8.245759773999453,42.9177506826818,0.0],[-8.24590779840946,42.91779225692153,0.0],[-8.245996981859207,42.91784841567278,0.0],[-8.246311638504267,42.91793391108513,0.0],[-8.246957212686539,42.91802862659097,0.0],[-8.247738741338253,42.91815955191851,0.0],[-8.248026743531227,42.918189726769924,0.0],[-8.248612135648727,42.91833942756057,0.0],[-8.24905151501298,42.91843229904771,0.0],[-8.249450493603945,42.918488793075085,0.0],[-8.250085674226284,42.91858283802867,0.0],[-8.250891342759132,42.918743938207626,0.0],[-8.251923155039549,42.919238805770874,0.0],[-8.25280711054802,42.919676173478365,0.0],[-8.253159988671541,42.92017573490739,0.0],[-8.253409434109926,42.92060673236847,0.0],[-8.253545556217432,42.920709159225225,0.0],[-8.253908660262823,42.921007722616196,0.0],[-8.25408685952425,42.92110478505492,0.0],[-8.254345189779997,42.9212093912065,0.0],[-8.255850076675415,42.92177751660347,0.0],[-8.256234973669052,42.9219520278275,0.0],[-8.25696000829339,42.922280598431826,0.0],[-8.257714882493019,42.922371458262205,0.0],[-8.25838040560484,42.92242208495736,0.0],[-8.25883923098445,42.92243164032698,0.0],[-8.258871249854565,42.92232267558575,0.0],[-8.259596787393093,42.92230423539877,0.0],[-8.260154854506254,42.922294680029154,0.0],[-8.260370437055826,42.922335751354694,0.0],[-8.260792549699543,42.92239794507623,0.0],[-8.2614216953516,42.92247472330928,0.0],[-8.261741381138563,42.92249735444784,0.0],[-8.261883705854414,42.92263699695468,0.0],[-8.262008763849735,42.92272383347154,0.0],[-8.263094052672386,42.923034969717264,0.0],[-8.264422081410885,42.92337393388152,0.0],[-8.264827094972134,42.923461105674505,0.0],[-8.265226408839226,42.923548612743616,0.0],[-8.265592195093632,42.92356051504612,0.0],[-8.26610466465354,42.92351558804512,0.0],[-8.266545552760363,42.923455238342285,0.0],[-8.26696464791894,42.9235165938735,0.0],[-8.267303444445133,42.923572082072496,0.0],[-8.267919681966305,42.92397927492857,0.0],[-8.268357049673796,42.92428622022271,0.0],[-8.268515970557928,42.92455159127712,0.0],[-8.268756195902824,42.924791146069765,0.0],[-8.269006647169588,42.92491838335991,0.0],[-8.269455917179585,42.924980744719505,0.0],[-8.270282540470362,42.925098426640034,0.0],[-8.271045964211226,42.925206050276756,0.0],[-8.272050451487303,42.92541157454252,0.0],[-8.27281353995204,42.92555859312415,0.0],[-8.273567073047161,42.92569153010845,0.0],[-8.273863960057497,42.92579362168908,0.0],[-8.274111896753311,42.92588263750076,0.0],[-8.274224549531937,42.92600551620126,0.0],[-8.274282049387693,42.926084473729134,0.0],[-8.274824190884829,42.92624657973647,0.0],[-8.27535493299365,42.926402147859335,0.0],[-8.275632709264755,42.926415894180536,0.0],[-8.276077788323162,42.926432993263006,0.0],[-8.276834841817617,42.926465179771185,0.0],[-8.277547303587198,42.92633442208171,0.0],[-8.277624417096376,42.926253117620945,0.0],[-8.277681414037943,42.92622998356819,0.0],[-8.278312906622887,42.926291171461344,0.0],[-8.279031906276941,42.92635990306735,0.0],[-8.279250003397465,42.92638622224331,0.0],[-8.279250003397465,42.92638622224331,0.0],[-8.279468938708305,42.92641270905733,0.0],[-8.279660046100616,42.92643064633012,0.0],[-8.279915861785412,42.92645126581192,0.0],[-8.280443083494902,42.92640667408705,0.0],[-8.280912805348635,42.92632168158889,0.0],[-8.281290493905544,42.92620215564966,0.0],[-8.282028269022703,42.925922870635986,0.0],[-8.282655235379934,42.92565565556288,0.0],[-8.283428717404602,42.92547510936856,0.0],[-8.283786289393902,42.9254057072103,0.0],[-8.284291215240955,42.92546857148409,0.0],[-8.284465055912733,42.92549019679427,0.0],[-8.285515643656254,42.92529037222266,0.0],[-8.285938259214163,42.925197668373585,0.0],[-8.286252580583096,42.92515777051449,0.0],[-8.286943584680557,42.92517771944404,0.0],[-8.287148270756006,42.92514972388744,0.0],[-8.287495784461498,42.92506389319897,0.0],[-8.287905827164648,42.924945540726185,0.0],[-8.28849809244275,42.924800869077444,0.0],[-8.28913327306509,42.92451890185475,0.0],[-8.289724700152872,42.924357298761606,0.0],[-8.29029818996787,42.924191839993,0.0],[-8.290516287088394,42.924121767282486,0.0],[-8.290478233247995,42.92399687692523,0.0],[-8.290589544922113,42.92388053610921,0.0],[-8.291154988110065,42.92354576289654,0.0],[-8.291501831263304,42.923317439854145,0.0],[-8.291853871196508,42.92314762249589,0.0],[-8.292245976626873,42.923042848706245,0.0],[-8.292577732354403,42.922934889793396,0.0],[-8.293006047606468,42.92272416874766,0.0],[-8.293317016214132,42.92262660339475,0.0],[-8.293681629002094,42.92251110076904,0.0],[-8.2942702062428,42.92224137112498,0.0],[-8.294555358588696,42.92209066450596,0.0],[-8.294984512031078,42.92181607335806,0.0],[-8.295383658260107,42.92161222547293,0.0],[-8.295773416757584,42.92146420106292,0.0],[-8.296113219112158,42.921303771436214,0.0],[-8.296601716428995,42.92091568931937,0.0],[-8.296904638409615,42.920668590813875,0.0],[-8.297364301979542,42.920390982180834,0.0],[-8.297827150672674,42.92032677680254,0.0],[-8.298207521438599,42.920236084610224,0.0],[-8.29859308898449,42.92024631053209,0.0],[-8.299021068960428,42.920181937515736,0.0],[-8.299476709216833,42.9197071865201,0.0],[-8.299575448036194,42.919544242322445,0.0],[-8.299750965088606,42.91942438110709,0.0],[-8.300052881240845,42.91926981881261,0.0],[-8.300305511802433,42.919178791344166,0.0],[-8.30053886398673,42.919131852686405,0.0],[-8.30071035772562,42.91910955682397,0.0],[-8.30080021172762,42.91905239224434,0.0],[-8.30111788585782,42.91882574558258,0.0],[-8.301283847540615,42.91893957182765,0.0],[-8.301365319639444,42.91896438226104,0.0],[-8.301419634371994,42.91897762566805,0.0],[-8.30150244757533,42.91904669255018,0.0],[-8.302439041435719,42.91917510330677,0.0],[-8.302802480757236,42.91923679411411,0.0],[-8.303240854293106,42.91928926482797,0.0],[-8.303644694387913,42.919297479093075,0.0],[-8.303988184779882,42.919230591505766,0.0],[-8.304958306252956,42.9190906137228,0.0],[-8.30516617745161,42.919053733348846,0.0],[-8.305230885744095,42.91890352964401,0.0],[-8.30531319603324,42.91881015524268,0.0],[-8.305570185184479,42.91882574558258,0.0],[-8.305664230138063,42.91893772780895,0.0],[-8.305755257606506,42.918972596526146,0.0],[-8.305844273418188,42.918970081955194,0.0],[-8.306697886437178,42.919010147452354,0.0],[-8.306900728493927,42.91896589100361,0.0],[-8.30719644203782,42.91882859542966,0.0],[-8.307691141963005,42.91854612529278,0.0],[-8.307895828038454,42.91845275089145,0.0],[-8.308141753077507,42.91842106729746,0.0],[-8.308609295636415,42.918396424502134,0.0],[-8.30882890149951,42.91847672313452,0.0],[-8.308922778815031,42.91845576837659,0.0],[-8.30917775630951,42.91835451498628,0.0],[-8.309866916388273,42.91835870593786,0.0],[-8.310048803687096,42.918401286005974,0.0],[-8.310373518615961,42.918365243822336,0.0],[-8.310671411454678,42.91831377893686,0.0],[-8.310460690408945,42.91751381009817,0.0],[-8.31085765734315,42.91745111346245,0.0],[-8.312383331358433,42.917269729077816,0.0],[-8.315414227545261,42.916978038847446,0.0],[-8.315559234470129,42.91682381182909,0.0],[-8.315778672695158,42.9167715087533,0.0],[-8.317853026092052,42.91642650961876,0.0],[-8.318539503961802,42.9162846878171,0.0],[-8.319304268807173,42.91600925847888,0.0],[-8.32015486434102,42.91566576808691,0.0],[-8.32109749317169,42.91543308645487,0.0],[-8.322237934917212,42.915273159742355,0.0],[-8.323149383068085,42.91529931128025,0.0],[-8.323801159858704,42.915353793650866,0.0],[-8.323684986680746,42.91555613279343,0.0],[-8.323406539857388,42.91598092764616,0.0],[-8.32343503832817,42.91655207052827,0.0],[-8.324176333844662,42.9164313711226,0.0],[-8.324782848358154,42.91635727509856,0.0],[-8.325238823890686,42.916372027248144,0.0],[-8.325925804674625,42.91645048186183,0.0],[-8.326336350291967,42.916517201811075,0.0],[-8.326969351619482,42.916610073298216,0.0],[-8.327642250806093,42.91681408882141,0.0],[-8.328383043408394,42.917017098516226,0.0],[-8.328544311225414,42.91701391339302,0.0],[-8.328851256519556,42.91709907352924,0.0],[-8.329222574830055,42.91723284870386,0.0],[-8.330109044909477,42.9174467548728,0.0],[-8.33046443760395,42.917514480650425,0.0],[-8.330540377646685,42.917228657752275,0.0],[-8.330672308802605,42.917142156511545,0.0],[-8.33083676174283,42.91704744100571,0.0],[-8.330843802541494,42.91693026199937,0.0],[-8.330867774784563,42.9168732650578,0.0],[-8.331008590757847,42.91680537164211,0.0],[-8.331063073128462,42.91676413267851,0.0],[-8.33159850910306,42.9167939722538,0.0],[-8.332381881773472,42.91714450344443,0.0],[-8.33278639242053,42.91736461222172,0.0],[-8.3332334831357,42.91763635352254,0.0],[-8.333508409559727,42.91769754141569,0.0],[-8.333530370146036,42.91784221306443,0.0],[-8.334022723138332,42.91804036125541,0.0],[-8.334545250982046,42.918144799768925,0.0],[-8.33489092066884,42.91818318888545,0.0],[-8.335646633058786,42.91827002540231,0.0],[-8.335747048258781,42.91826566681266,0.0],[-8.335747048258781,42.91826566681266,0.0],[-8.33578811958432,42.91826382279396,0.0],[-8.336146026849747,42.918312940746546,0.0],[-8.337432481348515,42.91843632236123,0.0],[-8.338322639465332,42.9184914752841,0.0],[-8.338805604726076,42.9184328019619,0.0],[-8.33926996216178,42.91830254718661,0.0],[-8.339498117566109,42.918248064816,0.0],[-8.34048517048359,42.91798638179898,0.0],[-8.343137539923191,42.9171253927052,0.0],[-8.343236278742552,42.91700016707182,0.0],[-8.343299981206656,42.916839234530926,0.0],[-8.343280032277107,42.9167215526104,0.0],[-8.343185987323523,42.91660672053695,0.0],[-8.343295119702816,42.91652558371425,0.0],[-8.343474827706814,42.91650831699371,0.0],[-8.343820665031672,42.91654033586383,0.0],[-8.343856204301119,42.91650043800473,0.0],[-8.343916218727827,42.91634202003479,0.0],[-8.344019651412964,42.91630983352661,0.0],[-8.34423003718257,42.91627814993262,0.0],[-8.344317208975554,42.91630011051893,0.0],[-8.34464879706502,42.9162136092782,0.0],[-8.345429152250288,42.915985621511936,0.0],[-8.345976658165455,42.91567297652364,0.0],[-8.34607070311904,42.91566291823983,0.0],[-8.346209172159433,42.915614638477564,0.0],[-8.34683546796441,42.91524650529027,0.0],[-8.347340058535337,42.91489211842418,0.0],[-8.34771590307355,42.91469430550933,0.0],[-8.347915727645159,42.914619371294975,0.0],[-8.34816886112094,42.91457813233137,0.0],[-8.348510842770338,42.91444133967161,0.0],[-8.348780069500206,42.914361376315355,0.0],[-8.348988611251116,42.914328183978796,0.0],[-8.349097240716217,42.9143643938005,0.0],[-8.34951851516962,42.91441585868597,0.0],[-8.350065685808659,42.91465021669865,0.0],[-8.350477907806633,42.91452532634139,0.0],[-8.351194057613611,42.91429851204157,0.0],[-8.352517057210205,42.91381638497114,0.0],[-8.352826852351427,42.9136822745204,0.0],[-8.352997172623873,42.913579009473324,0.0],[-8.353225495666265,42.91336476802826,0.0],[-8.353529758751392,42.91309705004096,0.0],[-8.353692200034857,42.91295388713479,0.0],[-8.353828322142363,42.91293041780591,0.0],[-8.354519661515951,42.91272271424532,0.0],[-8.355445694178343,42.91245348751545,0.0],[-8.356601390987635,42.912430856376886,0.0],[-8.357312679290771,42.91230143979192,0.0]]}}]}
