{"type":"FeatureCollection","features":[{"type":"Feature","properties":{"stage":5,"origin":"O Pedrouzo","destination":"Santiago de Compostela","source_file":"ES01c33a-Arca-SantiagodeCompostela.kml","source":"FEAACS / CNIG-IGN","license":"CC-BY 4.0"},"geometry":{"type":"LineString","coordinates":[[-8.357312679290771,42.91230143979192,0.0],[-8.357519041746855,42.912271935492754,0.0],[-8.357713501900434,42.91198309510946,0.0],[-8.358972296118736,42.91121480986476,0.0],[-8.359387200325727,42.911017667502165,0.0],[-8.360214829444885,42.91056605055928,0.0],[-8.361099790781736,42.91013019159436,0.0],[-8.36172977462411,42.909929025918245,0.0],[-8.362078629434109,42.909829281270504,0.0],[-8.362611718475819,42.909637670964,0.0],[-8.36317716166377,42.90939023718238,0.0],[-8.363398611545563,42.90920650586486,0.0],[-8.363698180764914,42.90905965492129,0.0],[-8.36357781663537,42.90884926915169,0.0],[-8.363384865224361,42.90875421836972,0.0],[-8.36322644725442,42.90870325639844,0.0],[-8.36323382332921,42.908617593348026,0.0],[-8.363336753100157,42.90839530527592,0.0],[-8.36356172338128,42.90770463645458,0.0],[-8.36401954293251,42.90728956460953,0.0],[-8.364241663366556,42.9073391854763,0.0],[-8.365385960787535,42.90820084512234,0.0],[-8.365610092878342,42.908405028283596,0.0],[-8.36575124412775,42.90832858532667,0.0],[-8.366452306509016,42.908066902309656,0.0],[-8.367604650557041,42.90761260315776,0.0],[-8.368022572249174,42.9074377566576,0.0],[-8.36821736767888,42.90736936032772,0.0],[-8.368468657135963,42.907297778874636,0.0],[-8.368644174188375,42.90725352242589,0.0],[-8.368852883577347,42.907192166894674,0.0],[-8.369123451411724,42.90711371228099,0.0],[-8.36940424516797,42.90699603036046,0.0],[-8.369640614837408,42.90701815858483,0.0],[-8.369924928992987,42.906957138329744,0.0],[-8.370148725807667,42.906815987080336,0.0],[-8.370211757719517,42.90677508339286,0.0],[-8.37022366002202,42.90670853108168,0.0],[-8.370381910353899,42.90668874979019,0.0],[-8.370365146547554,42.90647668763995,0.0],[-8.370418287813663,42.90635883808136,0.0],[-8.370546195656061,42.906269654631615,0.0],[-8.370919190347195,42.906454391777515,0.0],[-8.371044751256704,42.906470987945795,0.0],[-8.371421936899424,42.90616001933813,0.0],[-8.371558394283056,42.90607921779156,0.0],[-8.371867686510086,42.905740421265364,0.0],[-8.372102212160826,42.90585424751043,0.0],[-8.372438997030258,42.90612146258354,0.0],[-8.372900169342756,42.906058095395565,0.0],[-8.373174425214529,42.90602657943964,0.0],[-8.373391348868608,42.90593270212412,0.0],[-8.37357709184289,42.90587553754449,0.0],[-8.373737689107656,42.905822061002254,0.0],[-8.373926784843206,42.9056934826076,0.0],[-8.373996019363403,42.90559524670243,0.0],[-8.374361470341682,42.905393075197935,0.0],[-8.374737985432146,42.905243542045355,0.0],[-8.375094719231129,42.90500968694687,0.0],[-8.375201504677534,42.90472587570548,0.0],[-8.375382721424103,42.90451414883137,0.0],[-8.37649567052722,42.90408683940768,0.0],[-8.376783840358257,42.90392121300101,0.0],[-8.377124145627022,42.90384192019701,0.0],[-8.377522286027668,42.90382247418165,0.0],[-8.378187473863363,42.903717029839754,0.0],[-8.378576058894396,42.90366757661104,0.0],[-8.378986101597548,42.903621811419725,0.0],[-8.37929304689169,42.90361527353525,0.0],[-8.379899561405182,42.90367377921939,0.0],[-8.380351513624191,42.903717532753944,0.0],[-8.380800783634186,42.90377268567681,0.0],[-8.381215520203114,42.903781067579985,0.0],[-8.381508216261864,42.903758101165295,0.0],[-8.381608799099922,42.903528437018394,0.0],[-8.38202839717269,42.90365483611822,0.0],[-8.382587805390356,42.90380587801337,0.0],[-8.383768144994974,42.90413495153189,0.0],[-8.384434338659048,42.90433494374156,0.0],[-8.384738937020302,42.9044346883893,0.0],[-8.385822884738445,42.90484741330147,0.0],[-8.386109210550785,42.90486300364137,0.0],[-8.38635865598917,42.90473794564605,0.0],[-8.386526964604855,42.90446335449815,0.0],[-8.387106154114006,42.90324714034796,0.0],[-8.388619422912598,42.90364444255829,0.0],[-8.389153182506561,42.90384041145444,0.0],[-8.389491476118565,42.90411416441202,0.0],[-8.389800768345594,42.9043448343873,0.0],[-8.390199579298496,42.904411386698484,0.0],[-8.390725627541542,42.90439998731017,0.0],[-8.390978258103132,42.90445849299431,0.0],[-8.391186967492104,42.90460802614689,0.0],[-8.391159810125828,42.904817406088114,0.0],[-8.39158896356821,42.90530975908041,0.0],[-8.393423594534397,42.90595483034849,0.0],[-8.39354831725359,42.90591727942228,0.0],[-8.393916618078947,42.90583781898022,0.0],[-8.39408727362752,42.90590018033981,0.0],[-8.394273687154055,42.90594544261694,0.0],[-8.394943736493587,42.90580429136753,0.0],[-8.39745495468378,42.90547773241997,0.0],[-8.397850412875412,42.90548728778958,0.0],[-8.398109581321476,42.90547354146838,0.0],[-8.398176468908787,42.905698008835316,0.0],[-8.39817563071847,42.90586078539491,0.0],[-8.399032428860664,42.9062463529408,0.0],[-8.399377930909395,42.90637660771608,0.0],[-8.399703819304705,42.90641700848937,0.0],[-8.400121238082647,42.906316090375185,0.0],[-8.400387447327375,42.906242329627275,0.0],[-8.400748204439878,42.90621567517519,0.0],[-8.401315994560719,42.90603294968605,0.0],[-8.402231466025114,42.9061271622777,0.0],[-8.402329701930285,42.906147949397564,0.0],[-8.402404300868511,42.90613638237119,0.0],[-8.402690961956978,42.90598064661026,0.0],[-8.403107374906538,42.905776128172874,0.0],[-8.403935506939888,42.905759029090405,0.0],[-8.404504805803297,42.90592364966869,0.0],[-8.406028803437948,42.90586296468973,0.0],[-8.40664017945528,42.90585692971945,0.0],[-8.40693673118949,42.9058232344687,0.0],[-8.407577108591793,42.90589950978756,0.0],[-8.408289570361376,42.90576020255685,0.0],[-8.408689219504595,42.90574075654149,0.0],[-8.40948449447751,42.90610268712044,0.0],[-8.409692365676165,42.906170915812254,0.0],[-8.409833516925573,42.906159181147814,0.0],[-8.410174828022718,42.90622791275382,0.0],[-8.410290330648422,42.90636453777552,0.0],[-8.410561736673117,42.906509041786194,0.0],[-8.410781845450401,42.906918078660965,0.0],[-8.41096406802535,42.90721965953708,0.0],[-8.41136774048209,42.90745686739683,0.0],[-8.414842374622822,42.90836161002517,0.0],[-8.414830639958382,42.90852840989828,0.0],[-8.414820078760386,42.90881674736738,0.0],[-8.41473776847124,42.90921723470092,0.0],[-8.414660152047873,42.909534238278866,0.0],[-8.414575662463903,42.90975585579872,0.0],[-8.414530400186777,42.90995869785547,0.0],[-8.4145119599998,42.910250052809715,0.0],[-8.414442054927349,42.91082354262471,0.0],[-8.41439813375473,42.91108740493655,0.0],[-8.414340130984783,42.91140725836158,0.0],[-8.414274584501982,42.91173180565238,0.0],[-8.414245583117008,42.911893241107464,0.0],[-8.414166625589132,42.9123542457819,0.0],[-8.414116669446228,42.912648282945156,0.0],[-8.414112143218517,42.912961933761835,0.0],[-8.414092194288969,42.913287319242954,0.0],[-8.414086494594812,42.91362578049302,0.0],[-8.414195962250233,42.913638185709715,0.0],[-8.414520174264908,42.91362946853042,0.0],[-8.414805326610804,42.91364137083292,0.0],[-8.415194414556026,42.913633827120066,0.0],[-8.41801492497325,42.9136529378593,0.0],[-8.41813176870346,42.913640700280666,0.0],[-8.418390434235334,42.91357968002558,0.0],[-8.418544493615627,42.913592755794525,0.0],[-8.418760411441326,42.91358806192875,0.0],[-8.41907523572445,42.91361823678017,0.0],[-8.419459965080023,42.91366031393409,0.0],[-8.419841676950455,42.91365494951606,0.0],[-8.419962208718061,42.913611363619566,0.0],[-8.420151136815546,42.91349317878485,0.0],[-8.420216515660284,42.91344925761223,0.0],[-8.4203383885324,42.91343450546265,0.0],[-8.420558664947748,42.91345126926899,0.0],[-8.420776259154081,42.91349284350872,0.0],[-8.42115243896842,42.913477420806885,0.0],[-8.421382773667572,42.91346484795213,0.0],[-8.421768173575401,42.913459818810225,0.0],[-8.421965315937994,42.91348161175847,0.0],[-8.422290366142988,42.91340030729771,0.0],[-8.422512151300907,42.91330827400088,0.0],[-8.422960583120584,42.913082633167505,0.0],[-8.423376828432083,42.91279815137386,0.0],[-8.423533234745264,42.91265398263931,0.0],[-8.423885609954596,42.912165485322475,0.0],[-8.424057271331549,42.91189005598426,0.0],[-8.424199093133211,42.91164077818394,0.0],[-8.424172271043062,42.91141748428345,0.0],[-8.42416388913989,42.91122118011117,0.0],[-8.424173444509506,42.91110349819064,0.0],[-8.424406461417675,42.911005932837725,0.0],[-8.424238320440052,42.91047167032957,0.0],[-8.423670027405024,42.90901171043515,0.0],[-8.423649910837412,42.90887391194701,0.0],[-8.42366348952055,42.908789590001106,0.0],[-8.423703722655773,42.90871113538742,0.0],[-8.424078561365604,42.90875103324652,0.0],[-8.424947261810303,42.908845748752356,0.0],[-8.425450678914785,42.90899511426687,0.0],[-8.425709512084723,42.908992264419794,0.0],[-8.426154255867004,42.9088625125587,0.0],[-8.426221814006567,42.908783722668886,0.0],[-8.426237739622591,42.90854634717107,0.0],[-8.426343519240618,42.90845397859812,0.0],[-8.426524233072996,42.90839396417141,0.0],[-8.42705363407731,42.90815306827426,0.0],[-8.427460324019194,42.90769021958113,0.0],[-8.427722007036209,42.90733767673373,0.0],[-8.42790775001049,42.90717087686062,0.0],[-8.42839339748025,42.90692562237382,0.0],[-8.428919780999422,42.9067281447351,0.0],[-8.42967465519905,42.9063705727458,0.0],[-8.42988034710288,42.90621433407068,0.0],[-8.430004231631756,42.90605776011944,0.0],[-8.430085200816391,42.90591895580292,0.0],[-8.430244792252779,42.905779145658016,0.0],[-8.430581577122211,42.90557647123933,0.0],[-8.430949877947567,42.90544169023633,0.0],[-8.431202005594969,42.90540849789977,0.0],[-8.431616574525833,42.90539810433984,0.0],[-8.432011026889086,42.90523147210479,0.0],[-8.432268686592579,42.90514849126339,0.0],[-8.432537242770195,42.90495369583368,0.0],[-8.432847708463669,42.9047454893589,0.0],[-8.433119617402554,42.90461020544171,0.0],[-8.433398734778166,42.904503252357244,0.0],[-8.433672487735748,42.90437517687678,0.0],[-8.434036597609518,42.90429772809148,0.0],[-8.434429038316011,42.90422463789582,0.0],[-8.43462249264121,42.90417551994324,0.0],[-8.434947039932013,42.90420804172754,0.0],[-8.435081988573074,42.904211059212685,0.0],[-8.436273895204067,42.90337169542909,0.0],[-8.437785655260086,42.90234072133899,0.0],[-8.43846945092082,42.9019514657557,0.0],[-8.43959430232644,42.901896480470896,0.0],[-8.4409243427217,42.901713754981756,0.0],[-8.44199638813734,42.901583667844534,0.0],[-8.44263156875968,42.90148090571165,0.0],[-8.442926947027445,42.901323325932026,0.0],[-8.443187288939953,42.90119491517544,0.0],[-8.443595822900534,42.901029121130705,0.0],[-8.444032687693834,42.9008998721838,0.0],[-8.444708436727524,42.90071429684758,0.0],[-8.444731906056404,42.90070306509733,0.0],[-8.44488462433219,42.90071899071336,0.0],[-8.445431794971228,42.90063751861453,0.0],[-8.445835802704096,42.90056778118014,0.0],[-8.446155320852993,42.900502402335405,0.0],[-8.44672730192542,42.90033861994743,0.0],[-8.446808438748121,42.900247257202864,0.0],[-8.446894437074661,42.90009470656514,0.0],[-8.446856886148453,42.899922374635935,0.0],[-8.446798045188189,42.89981424808502,0.0],[-8.44662906602025,42.899830508977175,0.0],[-8.44662906602025,42.899830508977175,0.0],[-8.44660459086299,42.899748869240284,0.0],[-8.446487411856651,42.89954401552677,0.0],[-8.446256574243307,42.89948433637619,0.0],[-8.44588190317154,42.8994095697999,0.0],[-8.445598930120468,42.89940940216184,0.0],[-8.445241190493107,42.89937889203429,0.0],[-8.445072378963232,42.89933497086167,0.0],[-8.444967605173588,42.89924645796418,0.0],[-8.444633837789297,42.89920823648572,0.0],[-8.44466032460332,42.89913581684232,0.0],[-8.444641381502151,42.89879919961095,0.0],[-8.44451431185007,42.898583114147186,0.0],[-8.444293029606342,42.89843559265137,0.0],[-8.444213904440401,42.89835060015321,0.0],[-8.444530069828033,42.89834523573518,0.0],[-8.444506097584963,42.89827549830079,0.0],[-8.444568123668432,42.89813669398427,0.0],[-8.444741796702147,42.89818178862333,0.0],[-8.444965928792953,42.89814641699195,0.0],[-8.445107750594614,42.898095455020666,0.0],[-8.445307407528162,42.89795245975256,0.0],[-8.445509243756533,42.897823713719845,0.0],[-8.445788193494081,42.89770217612386,0.0],[-8.446309715509415,42.89749028161168,0.0],[-8.446834590286016,42.89735399186611,0.0],[-8.447352927178144,42.897205632179976,0.0],[-8.447548393160105,42.897101026028395,0.0],[-8.447579070925713,42.89706179872155,0.0],[-8.447626680135725,42.89695484563708,0.0],[-8.447669260203838,42.89673339575529,0.0],[-8.447637911885977,42.89645478129387,0.0],[-8.447572533041239,42.89619594812393,0.0],[-8.447560463100672,42.896026968955994,0.0],[-8.447581585496664,42.89591113105416,0.0],[-8.447720389813185,42.89573661983013,0.0],[-8.447830528020859,42.89554065093398,0.0],[-8.447874784469604,42.89543470367789,0.0],[-8.447833545506,42.89520084857941,0.0],[-8.447697423398495,42.895078137516975,0.0],[-8.447431549429893,42.89491217583418,0.0],[-8.447266090661287,42.89484243839979,0.0],[-8.447144385427237,42.894703801721334,0.0],[-8.44714606180787,42.89452325552702,0.0],[-8.447190653532743,42.89439082145691,0.0],[-8.447325937449932,42.894244473427534,0.0],[-8.447699099779129,42.894085217267275,0.0],[-8.447823319584131,42.893981616944075,0.0],[-8.447911497205496,42.893817499279976,0.0],[-8.448014426976442,42.893616165965796,0.0],[-8.448219280689955,42.89333587512374,0.0],[-8.448503259569407,42.89308240637183,0.0],[-8.448772486299276,42.89287118241191,0.0],[-8.449383024126291,42.89243884384632,0.0],[-8.449659124016762,42.892259638756514,0.0],[-8.44989851117134,42.8921652585268,0.0],[-8.449870850890875,42.892016395926476,0.0],[-8.449778985232115,42.891782373189926,0.0],[-8.449686113744974,42.89166519418359,0.0],[-8.44962190836668,42.89158523082733,0.0],[-8.450033962726593,42.89153929799795,0.0],[-8.450309056788681,42.891476936638355,0.0],[-8.450699653476477,42.89142580702901,0.0],[-8.451211955398321,42.891486659646034,0.0],[-8.451578579843044,42.89141105487943,0.0],[-8.452120553702116,42.891397811472416,0.0],[-8.452460188418627,42.891378197818995,0.0],[-8.452655654400587,42.891331259161234,0.0],[-8.452946674078701,42.89109371602535,0.0],[-8.453106433153152,42.89100956171751,0.0],[-8.45355486497283,42.89094803854823,0.0],[-8.454154673963785,42.89091367274523,0.0],[-8.45463177189231,42.890884168446064,0.0],[-8.454821705818176,42.89085986092687,0.0],[-8.45500074326992,42.89075944572687,0.0],[-8.455424364656208,42.890511341392994,0.0],[-8.45579031854868,42.89035812020302,0.0],[-8.456342853605747,42.89019400253892,0.0],[-8.45691081136465,42.89011336863041,0.0],[-8.457316663116217,42.89005570113659,0.0],[-8.457494527101517,42.8900863789022,0.0],[-8.458140939474106,42.890321742743254,0.0],[-8.458359204232693,42.89037035778165,0.0],[-8.458942249417303,42.89042668417096,0.0],[-8.459435943514109,42.89050044491887,0.0],[-8.459711205214262,42.89053162559867,0.0],[-8.460227865725756,42.89050983265042,0.0],[-8.460763301700354,42.89045266807079,0.0],[-8.461160939186811,42.89039500057697,0.0],[-8.46197934821248,42.89039298892021,0.0],[-8.46256272867322,42.89040170609951,0.0],[-8.46313001587987,42.89039835333824,0.0],[-8.463931661099195,42.89047362282872,0.0],[-8.464757278561592,42.890590634197,0.0],[-8.4655668027699,42.89070161059499,0.0],[-8.465603180229664,42.89070714265108,0.0],[-8.46711678430438,42.890935968607664,0.0],[-8.468468617647886,42.89111500605941,0.0],[-8.46960972994566,42.891299072653055,0.0],[-8.47054062411189,42.89144039154053,0.0],[-8.47222438082099,42.89165647700429,0.0],[-8.474018443375826,42.89188044145703,0.0],[-8.474779520183802,42.891973312944174,0.0],[-8.475823905318975,42.89209719747305,0.0],[-8.476204108446836,42.89217045530677,0.0],[-8.476313911378384,42.89222711697221,0.0],[-8.47644869238138,42.89224220439792,0.0],[-8.476557992398739,42.89223466068506,0.0],[-8.47659369930625,42.89219979196787,0.0],[-8.476422205567358,42.89151096716523,0.0],[-8.476261775940657,42.890901770442724,0.0],[-8.476155828684568,42.89052626118064,0.0],[-8.476242162287235,42.89048619568348,0.0],[-8.476569391787052,42.89048535749316,0.0],[-8.479358553886414,42.89057672023773,0.0],[-8.482147883623838,42.89064176380634,0.0],[-8.484308738261461,42.89070161059499,0.0],[-8.48586056381464,42.89074670523405,0.0],[-8.485957961529493,42.89070898666978,0.0],[-8.48600724712014,42.8906424343586,0.0],[-8.486101627349854,42.89059046655893,0.0],[-8.486312180757523,42.89058677852154,0.0],[-8.486723229289055,42.89065048098564,0.0],[-8.487370312213898,42.89077017456293,0.0],[-8.487439882010221,42.891117352992296,0.0],[-8.48751850426197,42.89129739627242,0.0],[-8.487643897533417,42.891418766230345,0.0],[-8.487795274704695,42.8914987295866,0.0],[-8.488654922693968,42.89138590916991,0.0],[-8.489120285958052,42.89131650701165,0.0],[-8.489384483546019,42.8912085480988,0.0],[-8.489716239273548,42.89110578596592,0.0],[-8.490067943930624,42.891018111258745,0.0],[-8.490838911384344,42.89085768163204,0.0],[-8.491163291037083,42.89081946015358,0.0],[-8.491379879415035,42.8907460346818,0.0],[-8.491740971803665,42.890612594783306,0.0],[-8.492276072502136,42.890386786311865,0.0],[-8.49283179268241,42.89014119654894,0.0],[-8.493258096277714,42.890013959258795,0.0],[-8.493589852005243,42.88989644497633,0.0],[-8.494105339050291,42.8897219337523,0.0],[-8.494445644319057,42.88965202867985,0.0],[-8.494867589324713,42.88943309336901,0.0],[-8.495633024722338,42.88915414363146,0.0],[-8.496179189532995,42.888935040682554,0.0],[-8.496306259185076,42.88883898407221,0.0],[-8.496306259185076,42.88883898407221,0.0],[-8.497856240719557,42.8882990218699,0.0],[-8.498913031071424,42.88803918287158,0.0],[-8.499010261148214,42.8880432061851,0.0],[-8.499282840639353,42.88798000663519,0.0],[-8.499701768159866,42.887874729931355,0.0],[-8.499926403164864,42.88774346932769,0.0],[-8.500271737575531,42.88771631196141,0.0],[-8.500626292079687,42.88774648681283,0.0],[-8.501247558742762,42.887842040508986,0.0],[-8.501694314181805,42.88789400830865,0.0],[-8.502020705491304,42.88780616596341,0.0],[-8.503169696778059,42.88747223094106,0.0],[-8.503203894942999,42.88753258064389,0.0],[-8.503499943763018,42.887506429106,0.0],[-8.503867574036121,42.887389585375786,0.0],[-8.50419832393527,42.88733895868063,0.0],[-8.50438591092825,42.887314315885305,0.0],[-8.504590261727571,42.88708398118615,0.0],[-8.504550196230412,42.88682296872139,0.0],[-8.504584394395351,42.886815927922726,0.0],[-8.504790589213371,42.8869622759521,0.0],[-8.505279589444399,42.88678089156747,0.0],[-8.50556692108512,42.886724062263966,0.0],[-8.506487924605606,42.88661811500788,0.0],[-8.506854381412268,42.88657670840621,0.0],[-8.507909998297691,42.88652641698718,0.0],[-8.508682139217854,42.886509988456964,0.0],[-8.509910926222801,42.886485513299704,0.0],[-8.510112762451172,42.88642717525363,0.0],[-8.510294649749994,42.886368837207556,0.0],[-8.510443177074192,42.8862558491528,0.0],[-8.510457091033459,42.88619181141257,0.0],[-8.510920610278845,42.88616415113211,0.0],[-8.51090082898736,42.88591805845499,0.0],[-8.511980082839727,42.88587614893913,0.0],[-8.512310665100811,42.88585267961025,0.0],[-8.513060845434666,42.885648496448994,0.0],[-8.513192608952522,42.8855668567121,0.0],[-8.513276763260365,42.88537776097655,0.0],[-8.513578847050667,42.885282542556524,0.0],[-8.513802979141474,42.88520844653249,0.0],[-8.513992577791212,42.885209284722805,0.0],[-8.514332715421915,42.88520358502865,0.0],[-8.515252377837896,42.885068133473396,0.0],[-8.515683207660913,42.88466613739729,0.0],[-8.516029547899961,42.8845102339983,0.0],[-8.51777348667383,42.88523593917489,0.0],[-8.51825712248683,42.885538190603256,0.0],[-8.518653083592653,42.88586877286434,0.0],[-8.519166558980942,42.88607815280557,0.0],[-8.519670143723488,42.88633396849036,0.0],[-8.520216476172209,42.88669019937515,0.0],[-8.5205571167171,42.886791955679655,0.0],[-8.521397486329079,42.886954732239246,0.0],[-8.522484954446554,42.88717299699783,0.0],[-8.52352263405919,42.8872350230813,0.0],[-8.523932509124279,42.88723887875676,0.0],[-8.524852339178324,42.887217588722706,0.0],[-8.525403868407011,42.8871800377965,0.0],[-8.526052627712488,42.88698172196746,0.0],[-8.52682527154684,42.886656671762466,0.0],[-8.52758165448904,42.88626205176115,0.0],[-8.527850210666656,42.886185105890036,0.0],[-8.528408613055944,42.88611771538854,0.0],[-8.529073130339384,42.88607530295849,0.0],[-8.529941830784082,42.88595359772444,0.0],[-8.530507106333971,42.88575494661927,0.0],[-8.530854955315588,42.88549393415451,0.0],[-8.531174473464487,42.8853147290647,0.0],[-8.531722985208035,42.88508724421263,0.0],[-8.532002437859774,42.88504734635353,0.0],[-8.53275429457426,42.885247338563204,0.0],[-8.532932829111814,42.88523577153683,0.0],[-8.53326927870512,42.884916588664055,0.0],[-8.533415123820305,42.88498280569911,0.0],[-8.533654678612947,42.88491826504469,0.0],[-8.533695079386234,42.88469698280096,0.0],[-8.533695079386234,42.88469698280096,0.0],[-8.533705472946165,42.884640991687775,0.0],[-8.53384679183364,42.88433471694589,0.0],[-8.533993642777205,42.88412198424339,0.0],[-8.534126412123442,42.88353189826012,0.0],[-8.534230347722769,42.883052453398705,0.0],[-8.53426119312644,42.88265464827418,0.0],[-8.534448612481356,42.88230814039707,0.0],[-8.53487005457282,42.881912011653185,0.0],[-8.535232990980148,42.88176566362381,0.0],[-8.535232990980148,42.88176566362381,0.0],[-8.535273056477308,42.88174957036972,0.0],[-8.536211661994457,42.8816057369113,0.0],[-8.537206258624792,42.881408762186766,0.0],[-8.538016453385353,42.881280686706305,0.0],[-8.538289703428745,42.881298288702965,0.0],[-8.539122696965933,42.88162602111697,0.0],[-8.539573475718498,42.88177538663149,0.0],[-8.539952170103788,42.88190145045519,0.0],[-8.540082089602947,42.88186624646187,0.0],[-8.540278393775225,42.881876807659864,0.0],[-8.540575448423624,42.88185518234968,0.0],[-8.54100527241826,42.88182232528925,0.0],[-8.54121683165431,42.8817542642355,0.0],[-8.541600555181503,42.88161227479577,0.0],[-8.54166341945529,42.88156667724252,0.0],[-8.541914373636246,42.881452683359385,0.0],[-8.542203716933727,42.88139082491398,0.0],[-8.54229776188731,42.88135662674904,0.0],[-8.54238510131836,42.881173230707645,0.0],[-8.54286940768361,42.88118094205856,0.0],[-8.54303302243352,42.8812275454402,0.0],[-8.543432168662548,42.88123391568661,0.0],[-8.543916642665863,42.88121849298477,0.0],[-8.544385861605406,42.881140038371086,0.0],[-8.544509075582027,42.881124280393124,0.0],[-8.544469512999058,42.88092764094472,0.0]]}}]}
